,Postcode,State,Municipality,City,Settlement
0,9830,Ciudad de México,Iztapalapa,Ciudad de México,Lomas El Manto
1,9830,Ciudad de México,Iztapalapa,Ciudad de México,Los Ángeles
2,9830,Ciudad de México,Iztapalapa,Ciudad de México,Paraje San Juan
3,9837,Ciudad de México,Iztapalapa,Ciudad de México,San Miguel 8va. Ampliación
4,9838,Ciudad de México,Iztapalapa,Ciudad de México,Plan de Iguala
5,9839,Ciudad de México,Iztapalapa,Ciudad de México,Ampliación Paraje San Juan
6,9839,Ciudad de México,Iztapalapa,Ciudad de México,San Juan Joya
7,9840,Ciudad de México,Iztapalapa,Ciudad de México,Los Reyes Culhuacán
8,9849,Ciudad de México,Iztapalapa,Ciudad de México,Ampliación Los Reyes
9,9850,Ciudad de México,Iztapalapa,Ciudad de México,San Juan Xalpa
10,9850,Ciudad de México,Iztapalapa,Ciudad de México,San Nicolás Tolentino
11,9850,Ciudad de México,Iztapalapa,Ciudad de México,Santa María del Monte
12,9856,Ciudad de México,Iztapalapa,Ciudad de México,Estado de Veracruz
13,9856,Ciudad de México,Iztapalapa,Ciudad de México,Ampliación Veracruzana
14,9858,Ciudad de México,Iztapalapa,Ciudad de México,Paraje San Juan Cerro
15,9859,Ciudad de México,Iztapalapa,Ciudad de México,Benito Juárez
16,9860,Ciudad de México,Iztapalapa,Ciudad de México,Bellavista
17,9860,Ciudad de México,Iztapalapa,Ciudad de México,Ampliación Bellavista
18,9860,Ciudad de México,Iztapalapa,Ciudad de México,Casa Blanca
19,9860,Ciudad de México,Iztapalapa,Ciudad de México,Cerro de La Estrella
20,9860,Ciudad de México,Iztapalapa,Ciudad de México,Parque Nacional Cerro de la Estrella
21,9860,Ciudad de México,Iztapalapa,Ciudad de México,El Rodeo
22,9868,Ciudad de México,Iztapalapa,Ciudad de México,San Juan Estrella
23,9870,Ciudad de México,Iztapalapa,Ciudad de México,12 de Diciembre
24,9870,Ciudad de México,Iztapalapa,Ciudad de México,San Andrés Tomatlán
25,9870,Ciudad de México,Iztapalapa,Ciudad de México,San Andrés Tomatlán
26,9870,Ciudad de México,Iztapalapa,Ciudad de México,Santa María Tomatlán
27,9880,Ciudad de México,Iztapalapa,Ciudad de México,El Vergel
28,9880,Ciudad de México,Iztapalapa,Ciudad de México,Granjas Estrella
29,9890,Ciudad de México,Iztapalapa,Ciudad de México,Lomas Estrella
30,9897,Ciudad de México,Iztapalapa,Ciudad de México,Carlos Jonguitud Barrios
31,9900,Ciudad de México,Iztapalapa,Ciudad de México,Guadalupe
32,9900,Ciudad de México,Iztapalapa,Ciudad de México,San Antonio
33,9900,Ciudad de México,Iztapalapa,Ciudad de México,San Lorenzo
34,9910,Ciudad de México,Iztapalapa,Ciudad de México,La Esperanza
35,9920,Ciudad de México,Iztapalapa,Ciudad de México,José López Portillo
36,9930,Ciudad de México,Iztapalapa,Ciudad de México,El Rosario
37,9940,Ciudad de México,Iztapalapa,Ciudad de México,Jardines de San Lorenzo Tezonco
38,9960,Ciudad de México,Iztapalapa,Ciudad de México,Celoalliotli
39,9960,Ciudad de México,Iztapalapa,Ciudad de México,USCOVI
40,9960,Ciudad de México,Iztapalapa,Ciudad de México,El Molino Tezonco
41,9960,Ciudad de México,Iztapalapa,Ciudad de México,Allapetlalli
42,9960,Ciudad de México,Iztapalapa,Ciudad de México,La Planta
43,9969,Ciudad de México,Iztapalapa,Ciudad de México,Cananea
44,9970,Ciudad de México,Iztapalapa,Ciudad de México,Valle de San Lorenzo
45,10000,Ciudad de México,La Magdalena Contreras,Ciudad de México,Lomas Quebradas
46,10010,Ciudad de México,La Magdalena Contreras,Ciudad de México,La Malinche
47,10010,Ciudad de México,La Magdalena Contreras,Ciudad de México,San Bartolo Ameyalco
48,10020,Ciudad de México,La Magdalena Contreras,Ciudad de México,Cuauhtémoc
49,10130,Ciudad de México,La Magdalena Contreras,Ciudad de México,El Maestro
50,10200,Ciudad de México,La Magdalena Contreras,Ciudad de México,San Jerónimo Lídice
51,10300,Ciudad de México,La Magdalena Contreras,Ciudad de México,San Bernabé Ocotepec
52,10320,Ciudad de México,La Magdalena Contreras,Ciudad de México,El Tanque
53,10330,Ciudad de México,La Magdalena Contreras,Ciudad de México,Las Cruces
54,10340,Ciudad de México,La Magdalena Contreras,Ciudad de México,Los Padres
55,10350,Ciudad de México,La Magdalena Contreras,Ciudad de México,Lomas de San Bernabé
56,10360,Ciudad de México,La Magdalena Contreras,Ciudad de México,Huayatla
57,7870,Ciudad de México,Gustavo A. Madero,Ciudad de México,Vallejo
58,7880,Ciudad de México,Gustavo A. Madero,Ciudad de México,Mártires de Río Blanco
59,7889,Ciudad de México,Gustavo A. Madero,Ciudad de México,Emiliano Zapata
60,7890,Ciudad de México,Gustavo A. Madero,Ciudad de México,Cuchilla La Joya
61,7890,Ciudad de México,Gustavo A. Madero,Ciudad de México,La Joya
62,7890,Ciudad de México,Gustavo A. Madero,Ciudad de México,Nueva Tenochtitlán
63,7899,Ciudad de México,Gustavo A. Madero,Ciudad de México,La Malinche
64,7900,Ciudad de México,Gustavo A. Madero,Ciudad de México,Cuchilla del Tesoro
65,7910,Ciudad de México,Gustavo A. Madero,Ciudad de México,San Juan de Aragón VII Sección
66,7918,Ciudad de México,Gustavo A. Madero,Ciudad de México,San Juan de Aragón VI Sección
67,7919,Ciudad de México,Gustavo A. Madero,Ciudad de México,Ex Ejido San Juan de Aragón Sector 32
68,7920,Ciudad de México,Gustavo A. Madero,Ciudad de México,El Olivo
69,7920,Ciudad de México,Gustavo A. Madero,Ciudad de México,San Juan de Aragón
70,7930,Ciudad de México,Gustavo A. Madero,Ciudad de México,Indeco
71,7939,Ciudad de México,Gustavo A. Madero,Ciudad de México,Héroes de Chapultepec
72,7940,Ciudad de México,Gustavo A. Madero,Ciudad de México,Ex Ejido San Juan de Aragón Sector 33
73,7950,Ciudad de México,Gustavo A. Madero,Ciudad de México,San Juan de Aragón
74,7960,Ciudad de México,Gustavo A. Madero,Ciudad de México,Héroes de Cerro Prieto
75,7960,Ciudad de México,Gustavo A. Madero,Ciudad de México,Ex Escuela de Tiro
76,7960,Ciudad de México,Gustavo A. Madero,Ciudad de México,Fernando Casas Alemán
77,7969,Ciudad de México,Gustavo A. Madero,Ciudad de México,San Juan de Aragón I Sección
78,7969,Ciudad de México,Gustavo A. Madero,Ciudad de México,San Juan de Aragón II Sección
79,7970,Ciudad de México,Gustavo A. Madero,Ciudad de México,San Juan de Aragón III Sección
80,7979,Ciudad de México,Gustavo A. Madero,Ciudad de México,San Juan de Aragón IV Sección
81,7979,Ciudad de México,Gustavo A. Madero,Ciudad de México,San Juan de Aragón V Sección
82,7980,Ciudad de México,Gustavo A. Madero,Ciudad de México,Narciso Bassols
83,7990,Ciudad de México,Gustavo A. Madero,Ciudad de México,C.T.M. Aragón
84,8000,Ciudad de México,Iztacalco,Ciudad de México,Gabriel Ramos Millán Sección Bramadero
85,8010,Ciudad de México,Iztacalco,Ciudad de México,Ex-Ejido de La Magdalena Mixiuhca
86,8020,Ciudad de México,Iztacalco,Ciudad de México,Ampliación Gabriel Ramos Millán
87,8030,Ciudad de México,Iztacalco,Ciudad de México,Gabriel Ramos Millán Sección Cuchilla
88,8040,Ciudad de México,Iztacalco,Ciudad de México,Carlos Zapata Vela
89,8100,Ciudad de México,Iztacalco,Ciudad de México,Agrícola Pantitlán
90,8200,Ciudad de México,Iztacalco,Ciudad de México,Viaducto Piedad
91,8210,Ciudad de México,Iztacalco,Ciudad de México,Nueva Santa Anita
92,8220,Ciudad de México,Iztacalco,Ciudad de México,San Pedro
93,8230,Ciudad de México,Iztacalco,Ciudad de México,San Francisco Xicaltongo
94,8240,Ciudad de México,Iztacalco,Ciudad de México,Santiago Norte
95,8300,Ciudad de México,Iztacalco,Ciudad de México,Santa Anita
96,8310,Ciudad de México,Iztacalco,Ciudad de México,La Cruz
97,8320,Ciudad de México,Iztacalco,Ciudad de México,Fraccionamiento Coyuya
98,8400,Ciudad de México,Iztacalco,Ciudad de México,Granjas México
99,8420,Ciudad de México,Iztacalco,Ciudad de México,Cuchilla Agrícola Oriental
100,8500,Ciudad de México,Iztacalco,Ciudad de México,Agrícola Oriental
101,8510,Ciudad de México,Iztacalco,Ciudad de México,El Rodeo
102,8600,Ciudad de México,Iztacalco,Ciudad de México,La Asunción
103,8610,Ciudad de México,Iztacalco,Ciudad de México,Zapotla
104,8620,Ciudad de México,Iztacalco,Ciudad de México,Los Reyes
105,8650,Ciudad de México,Iztacalco,Ciudad de México,San Miguel
106,8700,Ciudad de México,Iztacalco,Ciudad de México,Juventino Rosas
107,8710,Ciudad de México,Iztacalco,Ciudad de México,Tlazintla
108,8720,Ciudad de México,Iztacalco,Ciudad de México,Gabriel Ramos Millán Sección Tlacotal
109,8730,Ciudad de México,Iztacalco,Ciudad de México,Gabriel Ramos Millán
110,8760,Ciudad de México,Iztacalco,Ciudad de México,INPI Picos
111,13020,Ciudad de México,Tláhuac,Ciudad de México,San José
112,13030,Ciudad de México,Tláhuac,Ciudad de México,San Juan
113,13040,Ciudad de México,Tláhuac,Ciudad de México,San Mateo
114,13050,Ciudad de México,Tláhuac,Ciudad de México,La Habana
115,13060,Ciudad de México,Tláhuac,Ciudad de México,La Guadalupe
116,13060,Ciudad de México,Tláhuac,Ciudad de México,Santa Ana
117,13070,Ciudad de México,Tláhuac,Ciudad de México,La Magdalena
118,13070,Ciudad de México,Tláhuac,Ciudad de México,San Miguel
119,13080,Ciudad de México,Tláhuac,Ciudad de México,Los Reyes
120,13090,Ciudad de México,Tláhuac,Ciudad de México,Quiahuatla
121,13093,Ciudad de México,Tláhuac,Ciudad de México,San Sebastián
122,13094,Ciudad de México,Tláhuac,Ciudad de México,San Isidro
123,13099,Ciudad de México,Tláhuac,Ciudad de México,San Andrés
124,13100,Ciudad de México,Tláhuac,Ciudad de México,La Guadalupe
125,13110,Ciudad de México,Tláhuac,Ciudad de México,Cañada
126,13119,Ciudad de México,Tláhuac,Ciudad de México,La Poblanita
127,13120,Ciudad de México,Tláhuac,Ciudad de México,Ampliación Santa Catarina
128,13120,Ciudad de México,Tláhuac,Ciudad de México,Santiago
129,13123,Ciudad de México,Tláhuac,Ciudad de México,Teozoma
130,13123,Ciudad de México,Tláhuac,Ciudad de México,La Mesa
131,13123,Ciudad de México,Tláhuac,Ciudad de México,Chichilaula
132,13129,Ciudad de México,Tláhuac,Ciudad de México,San Francisco Apolocalco
133,13150,Ciudad de México,Tláhuac,Ciudad de México,La Concepción
134,13180,Ciudad de México,Tláhuac,Ciudad de México,San Miguel
135,13200,Ciudad de México,Tláhuac,Ciudad de México,Miguel Hidalgo
136,13210,Ciudad de México,Tláhuac,Ciudad de México,Los Olivos
137,13219,Ciudad de México,Tláhuac,Ciudad de México,Las Arboledas
138,13219,Ciudad de México,Tláhuac,Ciudad de México,Ampliación Los Olivos
139,13220,Ciudad de México,Tláhuac,Ciudad de México,La Nopalera
140,13230,Ciudad de México,Tláhuac,Ciudad de México,Granjas Cabrera
141,13250,Ciudad de México,Tláhuac,Ciudad de México,La Turba
142,13270,Ciudad de México,Tláhuac,Ciudad de México,Del Mar
143,13273,Ciudad de México,Tláhuac,Ciudad de México,La Draga
144,13278,Ciudad de México,Tláhuac,Ciudad de México,Villa Centroamericana
145,13280,Ciudad de México,Tláhuac,Ciudad de México,Agrícola Metropolitana
146,13300,Ciudad de México,Tláhuac,Ciudad de México,Santa Ana Centro
147,13300,Ciudad de México,Tláhuac,Ciudad de México,Santiago Centro
148,13300,Ciudad de México,Tláhuac,Ciudad de México,Santa Ana Poniente
149,13300,Ciudad de México,Tláhuac,Ciudad de México,Santa Ana Norte
150,13300,Ciudad de México,Tláhuac,Ciudad de México,Santiago Norte
151,13310,Ciudad de México,Tláhuac,Ciudad de México,Zapotitla
152,13315,Ciudad de México,Tláhuac,Ciudad de México,Ampliación Zapotitla
153,13319,Ciudad de México,Tláhuac,Ciudad de México,La Estación
154,13360,Ciudad de México,Tláhuac,Ciudad de México,La Conchita Zapotitlán
155,13360,Ciudad de México,Tláhuac,Ciudad de México,Santa Ana Sur
156,13360,Ciudad de México,Tláhuac,Ciudad de México,Santiago Sur
157,13400,Ciudad de México,Tláhuac,Ciudad de México,San Francisco Tlaltenco
158,13410,Ciudad de México,Tláhuac,Ciudad de México,López Portillo
159,13419,Ciudad de México,Tláhuac,Ciudad de México,Ampliación José López Portillo
160,13420,Ciudad de México,Tláhuac,Ciudad de México,Selene
161,13430,Ciudad de México,Tláhuac,Ciudad de México,Ampliación Selene
162,13440,Ciudad de México,Tláhuac,Ciudad de México,Zacatenco
163,13450,Ciudad de México,Tláhuac,Ciudad de México,Guadalupe Tlaltenco
164,13450,Ciudad de México,Tláhuac,Ciudad de México,Ojo de Agua
165,13460,Ciudad de México,Tláhuac,Ciudad de México,El Triángulo
166,13508,Ciudad de México,Tláhuac,Ciudad de México,San Agustín
167,13508,Ciudad de México,Tláhuac,Ciudad de México,La Soledad
168,13509,Ciudad de México,Tláhuac,Ciudad de México,La Concepción
169,14427,Ciudad de México,Tlalpan,Ciudad de México,Tepeximilpa la Paz
170,14429,Ciudad de México,Tlalpan,Ciudad de México,Santísima Trinidad
171,14430,Ciudad de México,Tlalpan,Ciudad de México,El Truenito
172,14430,Ciudad de México,Tlalpan,Ciudad de México,Tlalcoligia
173,14438,Ciudad de México,Tlalpan,Ciudad de México,Pedregal de Santa Úrsula Xitla
174,14439,Ciudad de México,Tlalpan,Ciudad de México,Pedregal de las Águilas
175,14440,Ciudad de México,Tlalpan,Ciudad de México,Los Volcanes
176,14449,Ciudad de México,Tlalpan,Ciudad de México,El Mirador 1A Sección
177,14449,Ciudad de México,Tlalpan,Ciudad de México,El Mirador 2A Sección
178,14449,Ciudad de México,Tlalpan,Ciudad de México,El Mirador 3A Sección
179,14456,Ciudad de México,Tlalpan,Ciudad de México,Atocpa
180,14460,Ciudad de México,Tlalpan,Ciudad de México,Tlalpuente
181,14470,Ciudad de México,Tlalpan,Ciudad de México,Plan de Ayala
182,14476,Ciudad de México,Tlalpan,Ciudad de México,La Palma
183,14479,Ciudad de México,Tlalpan,Ciudad de México,Viveros Coatectlán
184,14480,Ciudad de México,Tlalpan,Ciudad de México,La Magdalena Petlacalco
185,14490,Ciudad de México,Tlalpan,Ciudad de México,San Miguel Xicalco
186,14500,Ciudad de México,Tlalpan,Ciudad de México,San Miguel Topilejo
187,14520,Ciudad de México,Tlalpan,Ciudad de México,La Quinta
188,14529,Ciudad de México,Tlalpan,Ciudad de México,Estación Ajusco
189,14550,Ciudad de México,Tlalpan,Ciudad de México,Estrella Mora
190,14600,Ciudad de México,Tlalpan,Ciudad de México,Valle Escondido
191,14608,Ciudad de México,Tlalpan,Ciudad de México,Colinas del Bosque
192,14609,Ciudad de México,Tlalpan,Ciudad de México,Las Tórtolas
193,14610,Ciudad de México,Tlalpan,Ciudad de México,Arenal Tepepan
194,14620,Ciudad de México,Tlalpan,Ciudad de México,Club de Golf México
195,14629,Ciudad de México,Tlalpan,Ciudad de México,San Buenaventura
196,14630,Ciudad de México,Tlalpan,Ciudad de México,Chimalcoyoc
197,14630,Ciudad de México,Tlalpan,Ciudad de México,Villa Tlalpan
198,14640,Ciudad de México,Tlalpan,Ciudad de México,Ejidos de San Pedro Mártir
199,14643,Ciudad de México,Tlalpan,Ciudad de México,Fuentes de Tepepan
200,14646,Ciudad de México,Tlalpan,Ciudad de México,Valle de Tepepan
201,14647,Ciudad de México,Tlalpan,Ciudad de México,Juventud Unida
202,14647,Ciudad de México,Tlalpan,Ciudad de México,Movimiento Organizado de Tlalpan
203,14647,Ciudad de México,Tlalpan,Ciudad de México,Rinconada El Mirador
204,14650,Ciudad de México,Tlalpan,Ciudad de México,San Pedro Mártir
205,14653,Ciudad de México,Tlalpan,Ciudad de México,Heróico Colegio Militar
206,14654,Ciudad de México,Tlalpan,Ciudad de México,La Magueyera
207,14654,Ciudad de México,Tlalpan,Ciudad de México,Dolores Tlali
208,14655,Ciudad de México,Tlalpan,Ciudad de México,Valle Verde o Lomas Verdes
209,14657,Ciudad de México,Tlalpan,Ciudad de México,Tlalmille
210,14658,Ciudad de México,Tlalpan,Ciudad de México,Mirador del Valle
211,14659,Ciudad de México,Tlalpan,Ciudad de México,María Esther Zuno de Echeverría
212,14700,Ciudad de México,Tlalpan,Ciudad de México,San Miguel Ajusco
213,14710,Ciudad de México,Tlalpan,Ciudad de México,Santo Tomas Ajusco
214,14720,Ciudad de México,Tlalpan,Ciudad de México,Belvedere Ajusco
215,14730,Ciudad de México,Tlalpan,Ciudad de México,Lomas de Cuilotepec
216,14734,Ciudad de México,Tlalpan,Ciudad de México,Zacatón
217,14735,Ciudad de México,Tlalpan,Ciudad de México,San Nicolás 2
218,14735,Ciudad de México,Tlalpan,Ciudad de México,Lomas de Tepemecatl
219,14737,Ciudad de México,Tlalpan,Ciudad de México,Vistas del Pedregal
220,14738,Ciudad de México,Tlalpan,Ciudad de México,Bosques del Pedregal
221,14739,Ciudad de México,Tlalpan,Ciudad de México,2 de Octubre
222,14740,Ciudad de México,Tlalpan,Ciudad de México,Lomas de Padierna Sur
223,14748,Ciudad de México,Tlalpan,Ciudad de México,Mirador I
224,14748,Ciudad de México,Tlalpan,Ciudad de México,Mirador II
225,14749,Ciudad de México,Tlalpan,Ciudad de México,Chimilli
226,14750,Ciudad de México,Tlalpan,Ciudad de México,Rancho Viejo
227,16080,Ciudad de México,Xochimilco,Ciudad de México,La Santísima
228,16080,Ciudad de México,Xochimilco,Ciudad de México,San Cristóbal
229,16080,Ciudad de México,Xochimilco,Ciudad de México,San Diego
230,16080,Ciudad de México,Xochimilco,Ciudad de México,San Esteban
231,16090,Ciudad de México,Xochimilco,Ciudad de México,San Pedro
232,16090,Ciudad de México,Xochimilco,Ciudad de México,Tablas de San Lorenzo
233,16090,Ciudad de México,Xochimilco,Ciudad de México,Xaltocan
234,16100,Ciudad de México,Xochimilco,Ciudad de México,Santa Cruz Xochitepec
235,16200,Ciudad de México,Xochimilco,Ciudad de México,Santiago Tepalcatlalpan
236,16210,Ciudad de México,Xochimilco,Ciudad de México,La Concha
237,16300,Ciudad de México,Xochimilco,Ciudad de México,San Lucas Xochimanca
238,16310,Ciudad de México,Xochimilco,Ciudad de México,La Cañada
239,16320,Ciudad de México,Xochimilco,Ciudad de México,San Lucas Oriente
240,16340,Ciudad de México,Xochimilco,Ciudad de México,Texmic
241,16400,Ciudad de México,Xochimilco,Ciudad de México,San Lorenzo Atemoaya
242,16410,Ciudad de México,Xochimilco,Ciudad de México,Lomas de Tonalco
243,16420,Ciudad de México,Xochimilco,Ciudad de México,San Jerónimo
244,16428,Ciudad de México,Xochimilco,Ciudad de México,El Jazmín
245,16429,Ciudad de México,Xochimilco,Ciudad de México,Rancho Tejomulco
246,16430,Ciudad de México,Xochimilco,Ciudad de México,Xochipilli
247,16440,Ciudad de México,Xochimilco,Ciudad de México,Año de Juárez
248,16443,Ciudad de México,Xochimilco,Ciudad de México,Pocitos
249,16450,Ciudad de México,Xochimilco,Ciudad de México,Santa María Nativitas
250,16457,Ciudad de México,Xochimilco,Ciudad de México,Lomas de Nativitas
251,16459,Ciudad de México,Xochimilco,Ciudad de México,Ampliación Nativitas
252,16500,Ciudad de México,Xochimilco,Ciudad de México,Santa Cruz Acalpixca
253,16513,Ciudad de México,Xochimilco,Ciudad de México,Apatlaco
254,16513,Ciudad de México,Xochimilco,Ciudad de México,Del Puente
255,16514,Ciudad de México,Xochimilco,Ciudad de México,La Gallera
256,16514,Ciudad de México,Xochimilco,Ciudad de México,Tetitla
257,16514,Ciudad de México,Xochimilco,Ciudad de México,Calpulco
258,16520,Ciudad de México,Xochimilco,Ciudad de México,La Planta
259,16530,Ciudad de México,Xochimilco,Ciudad de México,Las Cruces
260,16530,Ciudad de México,Xochimilco,Ciudad de México,Las Flores
261,16533,Ciudad de México,Xochimilco,Ciudad de México,Ahualapa
262,16550,Ciudad de México,Xochimilco,Ciudad de México,Valle de Santa María
263,16600,Ciudad de México,Xochimilco,Ciudad de México,San Gregorio Atlapulco
264,16604,Ciudad de México,Xochimilco,Ciudad de México,San Andrés
265,16605,Ciudad de México,Xochimilco,Ciudad de México,Los Reyes
266,16606,Ciudad de México,Xochimilco,Ciudad de México,3 de Mayo
267,16607,Ciudad de México,Xochimilco,Ciudad de México,San Antonio
268,16609,Ciudad de México,Xochimilco,Ciudad de México,La Candelaria
269,16610,Ciudad de México,Xochimilco,Ciudad de México,San Luis Tlaxialtemalco
270,16614,Ciudad de México,Xochimilco,Ciudad de México,Niños Héroes
271,16615,Ciudad de México,Xochimilco,Ciudad de México,La Asunción
272,16616,Ciudad de México,Xochimilco,Ciudad de México,Santa Cecilia
273,16617,Ciudad de México,Xochimilco,Ciudad de México,San Sebastián
274,16620,Ciudad de México,Xochimilco,Ciudad de México,San José
275,16629,Ciudad de México,Xochimilco,Ciudad de México,La Guadalupana
276,16629,Ciudad de México,Xochimilco,Ciudad de México,San Juan
277,16630,Ciudad de México,Xochimilco,Ciudad de México,San Juan Moyotepec
278,16640,Ciudad de México,Xochimilco,Ciudad de México,San Juan Minas
279,16710,Ciudad de México,Xochimilco,Ciudad de México,Quirino Mendoza
280,16720,Ciudad de México,Xochimilco,Ciudad de México,Del Carmen
281,16739,Ciudad de México,Xochimilco,Ciudad de México,San Isidro
282,16740,Ciudad de México,Xochimilco,Ciudad de México,Guadalupita
283,16749,Ciudad de México,Xochimilco,Ciudad de México,Las Animas
284,16750,Ciudad de México,Xochimilco,Ciudad de México,Calyequita
285,16770,Ciudad de México,Xochimilco,Ciudad de México,San Felipe
286,16776,Ciudad de México,Xochimilco,Ciudad de México,Santiaguito
287,1389,Ciudad de México,Álvaro Obregón,Ciudad de México,Santa Fe Tlayapaca
288,1400,Ciudad de México,Álvaro Obregón,Ciudad de México,Olivar del Conde 1a Sección
289,1400,Ciudad de México,Álvaro Obregón,Ciudad de México,Preconcreto
290,1407,Ciudad de México,Álvaro Obregón,Ciudad de México,Galeana
291,1408,Ciudad de México,Álvaro Obregón,Ciudad de México,Olivar del Conde 2a Sección
292,1410,Ciudad de México,Álvaro Obregón,Ciudad de México,Barrio Norte
293,1410,Ciudad de México,Álvaro Obregón,Ciudad de México,Palmas
294,1419,Ciudad de México,Álvaro Obregón,Ciudad de México,Minas Cristo Rey
295,1420,Ciudad de México,Álvaro Obregón,Ciudad de México,Sacramento
296,1420,Ciudad de México,Álvaro Obregón,Ciudad de México,Santa María Nonoalco
297,1430,Ciudad de México,Álvaro Obregón,Ciudad de México,Colina del Sur
298,1450,Ciudad de México,Álvaro Obregón,Ciudad de México,Hogar y Redención
299,1460,Ciudad de México,Álvaro Obregón,Ciudad de México,Alfonso XIII
300,1470,Ciudad de México,Álvaro Obregón,Ciudad de México,Alfalfar
301,1470,Ciudad de México,Álvaro Obregón,Ciudad de México,Molino de Rosas
302,1480,Ciudad de México,Álvaro Obregón,Ciudad de México,Lomas de Plateros
303,1490,Ciudad de México,Álvaro Obregón,Ciudad de México,La Cascada
304,1500,Ciudad de México,Álvaro Obregón,Ciudad de México,Santa Lucía
305,1500,Ciudad de México,Álvaro Obregón,Ciudad de México,Miguel Gaona Armenta
306,1509,Ciudad de México,Álvaro Obregón,Ciudad de México,Santa Lucía Chantepec
307,1510,Ciudad de México,Álvaro Obregón,Ciudad de México,Garcimarrero
308,1510,Ciudad de México,Álvaro Obregón,Ciudad de México,La Araña
309,1510,Ciudad de México,Álvaro Obregón,Ciudad de México,Los Cedros
310,1520,Ciudad de México,Álvaro Obregón,Ciudad de México,Ampliación Los Pirules
311,1520,Ciudad de México,Álvaro Obregón,Ciudad de México,Estado de Hidalgo
312,1520,Ciudad de México,Álvaro Obregón,Ciudad de México,Ampliación Estado de Hidalgo
313,1520,Ciudad de México,Álvaro Obregón,Ciudad de México,Piru Santa Lucía
314,1520,Ciudad de México,Álvaro Obregón,Ciudad de México,El Politoco
315,1530,Ciudad de México,Álvaro Obregón,Ciudad de México,Corpus Christy
316,1538,Ciudad de México,Álvaro Obregón,Ciudad de México,Tepopotla
317,1539,Ciudad de México,Álvaro Obregón,Ciudad de México,Acuilotla
318,1539,Ciudad de México,Álvaro Obregón,Ciudad de México,Cooperativa Unión Olivos
319,1540,Ciudad de México,Álvaro Obregón,Ciudad de México,Balcones de Cehuayo
320,1540,Ciudad de México,Álvaro Obregón,Ciudad de México,Cehuaya
321,1540,Ciudad de México,Álvaro Obregón,Ciudad de México,Llano Redondo
322,1540,Ciudad de México,Álvaro Obregón,Ciudad de México,Punta de Cehuaya
323,1548,Ciudad de México,Álvaro Obregón,Ciudad de México,Villa Progresista
324,1549,Ciudad de México,Álvaro Obregón,Ciudad de México,Dos Ríos del Pueblo Santa Lucía
325,1550,Ciudad de México,Álvaro Obregón,Ciudad de México,Tepeaca
326,1550,Ciudad de México,Álvaro Obregón,Ciudad de México,Ampliación Tepeaca
327,1550,Ciudad de México,Álvaro Obregón,Ciudad de México,Rinconada Las Cuevitas
328,1560,Ciudad de México,Álvaro Obregón,Ciudad de México,Ave Real
329,1560,Ciudad de México,Álvaro Obregón,Ciudad de México,Canutillo
330,1560,Ciudad de México,Álvaro Obregón,Ciudad de México,Canutillo 3a Sección
331,1560,Ciudad de México,Álvaro Obregón,Ciudad de México,Canutillo 2a Sección
332,1566,Ciudad de México,Álvaro Obregón,Ciudad de México,Hueytlale
333,1569,Ciudad de México,Álvaro Obregón,Ciudad de México,Reacomodo Valentín Gómez Farías
334,1588,Ciudad de México,Álvaro Obregón,Ciudad de México,Tarango
335,1590,Ciudad de México,Álvaro Obregón,Ciudad de México,El Rincón
336,1600,Ciudad de México,Álvaro Obregón,Ciudad de México,Merced Gómez
337,1610,Ciudad de México,Álvaro Obregón,Ciudad de México,Colinas de Tarango
338,1610,Ciudad de México,Álvaro Obregón,Ciudad de México,Profesor J. Arturo López Martínez
339,1618,Ciudad de México,Álvaro Obregón,Ciudad de México,Arcos Centenario
340,1618,Ciudad de México,Álvaro Obregón,Ciudad de México,Ex-Hacienda de Tarango
341,1619,Ciudad de México,Álvaro Obregón,Ciudad de México,La Martinica
342,3100,Ciudad de México,Benito Juárez,Ciudad de México,Insurgentes San Borja
343,3103,Ciudad de México,Benito Juárez,Ciudad de México,Del Valle Norte
344,3104,Ciudad de México,Benito Juárez,Ciudad de México,Del Valle Sur
345,3200,Ciudad de México,Benito Juárez,Ciudad de México,Tlacoquemécatl
346,3230,Ciudad de México,Benito Juárez,Ciudad de México,Actipan
347,3240,Ciudad de México,Benito Juárez,Ciudad de México,Acacias
348,3300,Ciudad de México,Benito Juárez,Ciudad de México,Portales Sur
349,3303,Ciudad de México,Benito Juárez,Ciudad de México,Portales Norte
350,3310,Ciudad de México,Benito Juárez,Ciudad de México,Santa Cruz Atoyac
351,3320,Ciudad de México,Benito Juárez,Ciudad de México,Residencial Emperadores
352,3330,Ciudad de México,Benito Juárez,Ciudad de México,Xoco
353,3340,Ciudad de México,Benito Juárez,Ciudad de México,General Pedro María Anaya
354,3400,Ciudad de México,Benito Juárez,Ciudad de México,Álamos
355,3410,Ciudad de México,Benito Juárez,Ciudad de México,Postal
356,3420,Ciudad de México,Benito Juárez,Ciudad de México,Miguel Alemán
357,3430,Ciudad de México,Benito Juárez,Ciudad de México,Josefa Ortiz de Domínguez
358,3440,Ciudad de México,Benito Juárez,Ciudad de México,Niños Héroes
359,3500,Ciudad de México,Benito Juárez,Ciudad de México,Nativitas
360,3510,Ciudad de México,Benito Juárez,Ciudad de México,Moderna
361,3520,Ciudad de México,Benito Juárez,Ciudad de México,Iztaccihuatl
362,3530,Ciudad de México,Benito Juárez,Ciudad de México,Villa de Cortes
363,3540,Ciudad de México,Benito Juárez,Ciudad de México,Del Carmen
364,3550,Ciudad de México,Benito Juárez,Ciudad de México,Zacahuitzco
365,3560,Ciudad de México,Benito Juárez,Ciudad de México,Albert
366,3570,Ciudad de México,Benito Juárez,Ciudad de México,Portales Oriente
367,3580,Ciudad de México,Benito Juárez,Ciudad de México,Miravalle
368,3590,Ciudad de México,Benito Juárez,Ciudad de México,Ermita
369,3600,Ciudad de México,Benito Juárez,Ciudad de México,Vértiz Narvarte
370,3610,Ciudad de México,Benito Juárez,Ciudad de México,Américas Unidas
371,3620,Ciudad de México,Benito Juárez,Ciudad de México,Periodista
372,3630,Ciudad de México,Benito Juárez,Ciudad de México,Independencia
373,3640,Ciudad de México,Benito Juárez,Ciudad de México,Del Lago
374,3650,Ciudad de México,Benito Juárez,Ciudad de México,Letrán Valle
375,3660,Ciudad de México,Benito Juárez,Ciudad de México,San Simón Ticumac
376,3700,Ciudad de México,Benito Juárez,Ciudad de México,Santa María Nonoalco
377,3710,Ciudad de México,Benito Juárez,Ciudad de México,Ciudad de los Deportes
378,3720,Ciudad de México,Benito Juárez,Ciudad de México,Nochebuena
379,3730,Ciudad de México,Benito Juárez,Ciudad de México,San Juan
380,3740,Ciudad de México,Benito Juárez,Ciudad de México,Extremadura Insurgentes
381,3800,Ciudad de México,Benito Juárez,Ciudad de México,San Pedro de los Pinos
382,3810,Ciudad de México,Benito Juárez,Ciudad de México,Nápoles
383,3820,Ciudad de México,Benito Juárez,Ciudad de México,8 de Agosto
384,3840,Ciudad de México,Benito Juárez,Ciudad de México,Ampliación Nápoles
385,3900,Ciudad de México,Benito Juárez,Ciudad de México,San José Insurgentes
386,3910,Ciudad de México,Benito Juárez,Ciudad de México,Mixcoac
387,3920,Ciudad de México,Benito Juárez,Ciudad de México,Insurgentes Mixcoac
388,3930,Ciudad de México,Benito Juárez,Ciudad de México,Merced Gómez
389,3940,Ciudad de México,Benito Juárez,Ciudad de México,Crédito Constructor
390,4000,Ciudad de México,Coyoacán,Ciudad de México,Villa Coyoacán
391,4010,Ciudad de México,Coyoacán,Ciudad de México,Santa Catarina
392,6600,Ciudad de México,Cuauhtémoc,Ciudad de México,Juárez
393,6700,Ciudad de México,Cuauhtémoc,Ciudad de México,Roma Norte
394,6720,Ciudad de México,Cuauhtémoc,Ciudad de México,Doctores
395,6760,Ciudad de México,Cuauhtémoc,Ciudad de México,Roma Sur
396,6780,Ciudad de México,Cuauhtémoc,Ciudad de México,Buenos Aires
397,6800,Ciudad de México,Cuauhtémoc,Ciudad de México,Obrera
398,6820,Ciudad de México,Cuauhtémoc,Ciudad de México,Tránsito
399,6840,Ciudad de México,Cuauhtémoc,Ciudad de México,Esperanza
400,6850,Ciudad de México,Cuauhtémoc,Ciudad de México,Asturias
401,6860,Ciudad de México,Cuauhtémoc,Ciudad de México,Vista Alegre
402,6870,Ciudad de México,Cuauhtémoc,Ciudad de México,Paulino Navarro
403,6880,Ciudad de México,Cuauhtémoc,Ciudad de México,Algarin
404,6890,Ciudad de México,Cuauhtémoc,Ciudad de México,Ampliación Asturias
405,6900,Ciudad de México,Cuauhtémoc,Ciudad de México,Nonoalco Tlatelolco
406,6920,Ciudad de México,Cuauhtémoc,Ciudad de México,San Simón Tolnáhuac
407,7000,Ciudad de México,Gustavo A. Madero,Ciudad de México,Aragón la Villa
408,7010,Ciudad de México,Gustavo A. Madero,Ciudad de México,Rosas del Tepeyac
409,7010,Ciudad de México,Gustavo A. Madero,Ciudad de México,Santa Isabel Tola
410,7010,Ciudad de México,Gustavo A. Madero,Ciudad de México,Tepetates
411,7020,Ciudad de México,Gustavo A. Madero,Ciudad de México,Tepeyac Insurgentes
412,7040,Ciudad de México,Gustavo A. Madero,Ciudad de México,Santiago Atzacoalco
413,7050,Ciudad de México,Gustavo A. Madero,Ciudad de México,Villa Gustavo A. Madero
414,7058,Ciudad de México,Gustavo A. Madero,Ciudad de México,15 de Agosto
415,7060,Ciudad de México,Gustavo A. Madero,Ciudad de México,Estanzuela
416,7069,Ciudad de México,Gustavo A. Madero,Ciudad de México,Triunfo de La República
417,7070,Ciudad de México,Gustavo A. Madero,Ciudad de México,La Cruz
418,7070,Ciudad de México,Gustavo A. Madero,Ciudad de México,Dinamita
419,7070,Ciudad de México,Gustavo A. Madero,Ciudad de México,Martín Carrera
420,7080,Ciudad de México,Gustavo A. Madero,Ciudad de México,Gabriel Hernández
421,7089,Ciudad de México,Gustavo A. Madero,Ciudad de México,Ampliación Gabriel Hernández
422,7090,Ciudad de México,Gustavo A. Madero,Ciudad de México,C.T.M. Atzacoalco
423,7090,Ciudad de México,Gustavo A. Madero,Ciudad de México,C.T.M. El Risco
424,7100,Ciudad de México,Gustavo A. Madero,Ciudad de México,Cuautepec Barrio Alto
425,7100,Ciudad de México,Gustavo A. Madero,Ciudad de México,San Miguel
426,7109,Ciudad de México,Gustavo A. Madero,Ciudad de México,San Antonio
427,7110,Ciudad de México,Gustavo A. Madero,Ciudad de México,Lomas de Cuautepec
428,7119,Ciudad de México,Gustavo A. Madero,Ciudad de México,Malacates
429,7119,Ciudad de México,Gustavo A. Madero,Ciudad de México,Ampliación Malacates
430,7130,Ciudad de México,Gustavo A. Madero,Ciudad de México,Compositores Mexicanos
431,7130,Ciudad de México,Gustavo A. Madero,Ciudad de México,El Tepetatal
432,7140,Ciudad de México,Gustavo A. Madero,Ciudad de México,Arboledas
433,7140,Ciudad de México,Gustavo A. Madero,Ciudad de México,Ampliación Arboledas
434,7140,Ciudad de México,Gustavo A. Madero,Ciudad de México,Forestal
435,7140,Ciudad de México,Gustavo A. Madero,Ciudad de México,Forestal I
436,7144,Ciudad de México,Gustavo A. Madero,Ciudad de México,Forestal II
437,7144,Ciudad de México,Gustavo A. Madero,Ciudad de México,La Lengüeta
438,7149,Ciudad de México,Gustavo A. Madero,Ciudad de México,Parque Metropolitano
439,7150,Ciudad de México,Gustavo A. Madero,Ciudad de México,Juventino Rosas
440,7150,Ciudad de México,Gustavo A. Madero,Ciudad de México,La Casilda
441,7160,Ciudad de México,Gustavo A. Madero,Ciudad de México,Loma La Palma
442,7164,Ciudad de México,Gustavo A. Madero,Ciudad de México,Luis Donaldo Colosio
443,7164,Ciudad de México,Gustavo A. Madero,Ciudad de México,Tlacaélel
444,7164,Ciudad de México,Gustavo A. Madero,Ciudad de México,Graciano Sánchez
445,7164,Ciudad de México,Gustavo A. Madero,Ciudad de México,Prados de Cuautepec
446,7170,Ciudad de México,Gustavo A. Madero,Ciudad de México,Palmatitla
447,8760,Ciudad de México,Iztacalco,Ciudad de México,Los Picos de Iztacalco Sección 2A
448,8760,Ciudad de México,Iztacalco,Ciudad de México,Los Picos de Iztacalco Sección 1B
449,8770,Ciudad de México,Iztacalco,Ciudad de México,Los Picos de Iztacalco Sección 1A
450,8800,Ciudad de México,Iztacalco,Ciudad de México,Santiago Sur
451,8810,Ciudad de México,Iztacalco,Ciudad de México,Reforma Iztaccíhuatl Norte
452,8830,Ciudad de México,Iztacalco,Ciudad de México,Militar Marte
453,8840,Ciudad de México,Iztacalco,Ciudad de México,Reforma Iztaccíhuatl Sur
454,8900,Ciudad de México,Iztacalco,Ciudad de México,INFONAVIT Iztacalco
455,8910,Ciudad de México,Iztacalco,Ciudad de México,Santa Cruz
456,8920,Ciudad de México,Iztacalco,Ciudad de México,Jardines Tecma
457,8930,Ciudad de México,Iztacalco,Ciudad de México,Campamento 2 de Octubre
458,9000,Ciudad de México,Iztapalapa,Ciudad de México,La Asunción
459,9000,Ciudad de México,Iztapalapa,Ciudad de México,San Ignacio
460,9000,Ciudad de México,Iztapalapa,Ciudad de México,San José
461,9000,Ciudad de México,Iztapalapa,Ciudad de México,San Lucas
462,9000,Ciudad de México,Iztapalapa,Ciudad de México,San Pablo
463,9000,Ciudad de México,Iztapalapa,Ciudad de México,San Pedro
464,9000,Ciudad de México,Iztapalapa,Ciudad de México,Santa Bárbara
465,9010,Ciudad de México,Iztapalapa,Ciudad de México,Real del Moral
466,9020,Ciudad de México,Iztapalapa,Ciudad de México,Dr. Alfonso Ortiz Tirado
467,9030,Ciudad de México,Iztapalapa,Ciudad de México,Paseos de Churubusco
468,9040,Ciudad de México,Iztapalapa,Ciudad de México,Central de Abasto
469,9060,Ciudad de México,Iztapalapa,Ciudad de México,Escuadrón 201
470,9060,Ciudad de México,Iztapalapa,Ciudad de México,Sector Popular
471,9070,Ciudad de México,Iztapalapa,Ciudad de México,Granjas de San Antonio
472,9080,Ciudad de México,Iztapalapa,Ciudad de México,Cacama
473,9089,Ciudad de México,Iztapalapa,Ciudad de México,Unidad Modelo
474,9090,Ciudad de México,Iztapalapa,Ciudad de México,Héroes de Churubusco
475,9099,Ciudad de México,Iztapalapa,Ciudad de México,Mexicaltzingo
476,9100,Ciudad de México,Iztapalapa,Ciudad de México,Juan Escutia
477,9130,Ciudad de México,Iztapalapa,Ciudad de México,San Lorenzo Xicotencatl
478,9140,Ciudad de México,Iztapalapa,Ciudad de México,Santa Martha Acatitla Norte
479,9180,Ciudad de México,Iztapalapa,Ciudad de México,Ermita Zaragoza
480,9200,Ciudad de México,Iztapalapa,Ciudad de México,Unidad Vicente Guerrero
481,9208,Ciudad de México,Iztapalapa,Ciudad de México,Chinampac de Juárez
482,9209,Ciudad de México,Iztapalapa,Ciudad de México,Renovación
483,9210,Ciudad de México,Iztapalapa,Ciudad de México,Tepalcates
484,9220,Ciudad de México,Iztapalapa,Ciudad de México,Unidad Ejército Constitucionalista
485,9230,Ciudad de México,Iztapalapa,Ciudad de México,Álvaro Obregón
486,9230,Ciudad de México,Iztapalapa,Ciudad de México,Ejército de Oriente
487,9230,Ciudad de México,Iztapalapa,Ciudad de México,El Paraíso
488,9230,Ciudad de México,Iztapalapa,Ciudad de México,José María Morelos y Pavón
489,9239,Ciudad de México,Iztapalapa,Ciudad de México,Ejército de Oriente Zona Peñón
490,9240,Ciudad de México,Iztapalapa,Ciudad de México,Progresista
491,9250,Ciudad de México,Iztapalapa,Ciudad de México,La Regadera
492,9260,Ciudad de México,Iztapalapa,Ciudad de México,Constitución de 1917
493,9270,Ciudad de México,Iztapalapa,Ciudad de México,Colonial Iztapalapa
494,9280,Ciudad de México,Iztapalapa,Ciudad de México,Jacarandas
495,9290,Ciudad de México,Iztapalapa,Ciudad de México,Santa Cruz Meyehualco
496,9300,Ciudad de México,Iztapalapa,Ciudad de México,Guadalupe del Moral
497,9310,Ciudad de México,Iztapalapa,Ciudad de México,Leyes de Reforma 1a Sección
498,9310,Ciudad de México,Iztapalapa,Ciudad de México,Leyes de Reforma 2a Sección
499,9310,Ciudad de México,Iztapalapa,Ciudad de México,Leyes de Reforma 3a Sección
500,9319,Ciudad de México,Iztapalapa,Ciudad de México,Cuchilla del Moral
501,9320,Ciudad de México,Iztapalapa,Ciudad de México,Sideral
502,10368,Ciudad de México,La Magdalena Contreras,Ciudad de México,Ampliación Potrerillo
503,10369,Ciudad de México,La Magdalena Contreras,Ciudad de México,Ampliación Lomas de San Bernabé
504,10369,Ciudad de México,La Magdalena Contreras,Ciudad de México,Tierra Unida
505,10370,Ciudad de México,La Magdalena Contreras,Ciudad de México,Palmas
506,10378,Ciudad de México,La Magdalena Contreras,Ciudad de México,Atacaxco
507,10379,Ciudad de México,La Magdalena Contreras,Ciudad de México,Vista Hermosa
508,10380,Ciudad de México,La Magdalena Contreras,Ciudad de México,Barros Sierra
509,10400,Ciudad de México,La Magdalena Contreras,Ciudad de México,San Jerónimo Aculco
510,10500,Ciudad de México,La Magdalena Contreras,Ciudad de México,Barrio San Francisco
511,10580,Ciudad de México,La Magdalena Contreras,Ciudad de México,Barranca Seca
512,10600,Ciudad de México,La Magdalena Contreras,Ciudad de México,El Rosal
513,10610,Ciudad de México,La Magdalena Contreras,Ciudad de México,El Toro
514,10620,Ciudad de México,La Magdalena Contreras,Ciudad de México,Potrerillo
515,10630,Ciudad de México,La Magdalena Contreras,Ciudad de México,El Ocotal
516,10640,Ciudad de México,La Magdalena Contreras,Ciudad de México,La Carbonera
517,10640,Ciudad de México,La Magdalena Contreras,Ciudad de México,Pueblo Nuevo Alto
518,10640,Ciudad de México,La Magdalena Contreras,Ciudad de México,Pueblo Nuevo Bajo
519,10660,Ciudad de México,La Magdalena Contreras,Ciudad de México,El Ermitaño
520,10700,Ciudad de México,La Magdalena Contreras,Ciudad de México,Héroes de Padierna
521,10710,Ciudad de México,La Magdalena Contreras,Ciudad de México,Santa Teresa
522,10800,Ciudad de México,La Magdalena Contreras,Ciudad de México,La Cruz
523,10810,Ciudad de México,La Magdalena Contreras,Ciudad de México,San Francisco
524,10820,Ciudad de México,La Magdalena Contreras,Ciudad de México,La Guadalupe
525,10830,Ciudad de México,La Magdalena Contreras,Ciudad de México,La Concepción
526,10840,Ciudad de México,La Magdalena Contreras,Ciudad de México,Las Calles
527,10840,Ciudad de México,La Magdalena Contreras,Ciudad de México,Plazuela del Pedregal
528,10900,Ciudad de México,La Magdalena Contreras,Ciudad de México,San Nicolás Totolapan
529,10910,Ciudad de México,La Magdalena Contreras,Ciudad de México,La Magdalena
530,10920,Ciudad de México,La Magdalena Contreras,Ciudad de México,Las Huertas
531,10926,Ciudad de México,La Magdalena Contreras,Ciudad de México,Tierra Colorada
532,11000,Ciudad de México,Miguel Hidalgo,Ciudad de México,Lomas de Chapultepec I Sección
533,11000,Ciudad de México,Miguel Hidalgo,Ciudad de México,Lomas de Chapultepec VIII Sección
534,11000,Ciudad de México,Miguel Hidalgo,Ciudad de México,Lomas de Chapultepec II Sección
535,11000,Ciudad de México,Miguel Hidalgo,Ciudad de México,Lomas de Chapultepec III Sección
536,11000,Ciudad de México,Miguel Hidalgo,Ciudad de México,Lomas de Chapultepec IV Sección
537,11000,Ciudad de México,Miguel Hidalgo,Ciudad de México,Lomas de Chapultepec V Sección
538,11000,Ciudad de México,Miguel Hidalgo,Ciudad de México,Lomas de Chapultepec VI Sección
539,11000,Ciudad de México,Miguel Hidalgo,Ciudad de México,Lomas de Chapultepec VII Sección
540,11040,Ciudad de México,Miguel Hidalgo,Ciudad de México,Molino del Rey
541,11100,Ciudad de México,Miguel Hidalgo,Ciudad de México,Bosque de Chapultepec II Sección
542,11100,Ciudad de México,Miguel Hidalgo,Ciudad de México,Bosque de Chapultepec III Sección
543,11200,Ciudad de México,Miguel Hidalgo,Ciudad de México,Lomas Hermosa
544,11200,Ciudad de México,Miguel Hidalgo,Ciudad de México,Lomas de Sotelo
545,11210,Ciudad de México,Miguel Hidalgo,Ciudad de México,San Lorenzo Tlaltenango
546,11220,Ciudad de México,Miguel Hidalgo,Ciudad de México,Periodista
547,11230,Ciudad de México,Miguel Hidalgo,Ciudad de México,Argentina Poniente
548,13510,Ciudad de México,Tláhuac,Ciudad de México,La Lupita
549,13520,Ciudad de México,Tláhuac,Ciudad de México,Francisco Villa
550,13529,Ciudad de México,Tláhuac,Ciudad de México,La Loma
551,13530,Ciudad de México,Tláhuac,Ciudad de México,Jaime Torres Bodet
552,13530,Ciudad de México,Tláhuac,Ciudad de México,La Asunción
553,13540,Ciudad de México,Tláhuac,Ciudad de México,El Rosario
554,13540,Ciudad de México,Tláhuac,Ciudad de México,Tierra Blanca
555,13545,Ciudad de México,Tláhuac,Ciudad de México,Ampliación La Conchita
556,13546,Ciudad de México,Tláhuac,Ciudad de México,Olivar Santa María
557,13549,Ciudad de México,Tláhuac,Ciudad de México,Peña Alta
558,13550,Ciudad de México,Tláhuac,Ciudad de México,Jardines del Llano
559,13550,Ciudad de México,Tláhuac,Ciudad de México,Potrero del Llano
560,13600,Ciudad de México,Tláhuac,Ciudad de México,San Bartolomé
561,13610,Ciudad de México,Tláhuac,Ciudad de México,Los Reyes
562,13625,Ciudad de México,Tláhuac,Ciudad de México,Santa Cruz
563,13630,Ciudad de México,Tláhuac,Ciudad de México,San Agustín
564,13640,Ciudad de México,Tláhuac,Ciudad de México,San Miguel
565,13700,Ciudad de México,Tláhuac,Ciudad de México,San Nicolás Tetelco
566,13700,Ciudad de México,Tláhuac,Ciudad de México,Tepantitlamilco
567,14000,Ciudad de México,Tlalpan,Ciudad de México,Tlalpan Centro
568,14000,Ciudad de México,Tlalpan,Ciudad de México,Tlalpan
569,14010,Ciudad de México,Tlalpan,Ciudad de México,Parque del Pedregal
570,14020,Ciudad de México,Tlalpan,Ciudad de México,Villa Olímpica
571,14030,Ciudad de México,Tlalpan,Ciudad de México,Isidro Fabela
572,14039,Ciudad de México,Tlalpan,Ciudad de México,Ampliación Isidro Fabela
573,14040,Ciudad de México,Tlalpan,Ciudad de México,Cantera Puente de Piedra
574,14040,Ciudad de México,Tlalpan,Ciudad de México,Pueblo Quieto
575,14049,Ciudad de México,Tlalpan,Ciudad de México,Comuneros de Santa Úrsula
576,14050,Ciudad de México,Tlalpan,Ciudad de México,Toriello Guerra
577,14060,Ciudad de México,Tlalpan,Ciudad de México,Peña Pobre
578,14070,Ciudad de México,Tlalpan,Ciudad de México,Rómulo Sánchez Mireles
579,14070,Ciudad de México,Tlalpan,Ciudad de México,San Fernando
580,14070,Ciudad de México,Tlalpan,Ciudad de México,San Pedro Apóstol
581,14080,Ciudad de México,Tlalpan,Ciudad de México,Belisario Domínguez Sección XVI
582,14080,Ciudad de México,Tlalpan,Ciudad de México,Del Niño Jesús
583,14090,Ciudad de México,Tlalpan,Ciudad de México,La Joya
584,14100,Ciudad de México,Tlalpan,Ciudad de México,Pedregal de San Nicolás 1A Sección
585,14100,Ciudad de México,Tlalpan,Ciudad de México,Pedregal de San Nicolás 2A Sección
586,14100,Ciudad de México,Tlalpan,Ciudad de México,Pedregal de San Nicolás 3A Sección
587,14100,Ciudad de México,Tlalpan,Ciudad de México,Pedregal de San Nicolás 4A Sección
588,14100,Ciudad de México,Tlalpan,Ciudad de México,Pedregal de San Nicolás 5A Sección
589,14108,Ciudad de México,Tlalpan,Ciudad de México,Chichicaspatl
590,14110,Ciudad de México,Tlalpan,Ciudad de México,Ampliación Fuentes del Pedregal
591,14120,Ciudad de México,Tlalpan,Ciudad de México,Rincón del Pedregal
592,14140,Ciudad de México,Tlalpan,Ciudad de México,Fuentes del Pedregal
593,14150,Ciudad de México,Tlalpan,Ciudad de México,Lomas del Pedregal Framboyanes
594,14160,Ciudad de México,Tlalpan,Ciudad de México,Popular Santa Teresa
595,14200,Ciudad de México,Tlalpan,Ciudad de México,Héroes de Padierna
596,14200,Ciudad de México,Tlalpan,Ciudad de México,Jardines del Ajusco
597,14208,Ciudad de México,Tlalpan,Ciudad de México,Colinas del Ajusco
598,14209,Ciudad de México,Tlalpan,Ciudad de México,Torres de Padierna
599,14210,Ciudad de México,Tlalpan,Ciudad de México,Jardines en la Montaña
600,14219,Ciudad de México,Tlalpan,Ciudad de México,Six Flags (Reino Aventura)
601,14219,Ciudad de México,Tlalpan,Ciudad de México,Parque Nacional Bosque del Pedregal
602,14220,Ciudad de México,Tlalpan,Ciudad de México,Cuchilla de Padierna
603,14220,Ciudad de México,Tlalpan,Ciudad de México,Lomas del Pedregal
604,14230,Ciudad de México,Tlalpan,Ciudad de México,Cultura Maya
605,14760,Ciudad de México,Tlalpan,Ciudad de México,Héroes de 1910
606,14780,Ciudad de México,Tlalpan,Ciudad de México,El Charco
607,14790,Ciudad de México,Tlalpan,Ciudad de México,San Jorge
608,14900,Ciudad de México,Tlalpan,Ciudad de México,Parres El Guarda
609,15000,Ciudad de México,Venustiano Carranza,Ciudad de México,General Ignacio Zaragoza
610,15010,Ciudad de México,Venustiano Carranza,Ciudad de México,Valentín Gómez Farias
611,15020,Ciudad de México,Venustiano Carranza,Ciudad de México,Puebla
612,15100,Ciudad de México,Venustiano Carranza,Ciudad de México,Zona Centro
613,15200,Ciudad de México,Venustiano Carranza,Ciudad de México,Janitzio
614,15210,Ciudad de México,Venustiano Carranza,Ciudad de México,Valle Gómez
615,15220,Ciudad de México,Venustiano Carranza,Ciudad de México,Nicolás Bravo
616,15220,Ciudad de México,Venustiano Carranza,Ciudad de México,Popular Rastro
617,15230,Ciudad de México,Venustiano Carranza,Ciudad de México,Emilio Carranza
618,15240,Ciudad de México,Venustiano Carranza,Ciudad de México,Michoacana
619,15250,Ciudad de México,Venustiano Carranza,Ciudad de México,Ampliación Michoacana
620,15260,Ciudad de México,Venustiano Carranza,Ciudad de México,Ampliación 20 de Noviembre
621,15270,Ciudad de México,Venustiano Carranza,Ciudad de México,Morelos
622,15280,Ciudad de México,Venustiano Carranza,Ciudad de México,Penitenciaria
623,15290,Ciudad de México,Venustiano Carranza,Ciudad de México,10 de Mayo
624,15300,Ciudad de México,Venustiano Carranza,Ciudad de México,20 de Noviembre
625,15309,Ciudad de México,Venustiano Carranza,Ciudad de México,5o Tramo 20 de Noviembre
626,15310,Ciudad de México,Venustiano Carranza,Ciudad de México,Felipe Ángeles
627,15320,Ciudad de México,Venustiano Carranza,Ciudad de México,Azteca
628,15330,Ciudad de México,Venustiano Carranza,Ciudad de México,Tres Mosqueteros
629,15339,Ciudad de México,Venustiano Carranza,Ciudad de México,Ampliación Venustiano Carranza
630,15340,Ciudad de México,Venustiano Carranza,Ciudad de México,Venustiano Carranza
631,15350,Ciudad de México,Venustiano Carranza,Ciudad de México,Ampliación Penitenciaria
632,15370,Ciudad de México,Venustiano Carranza,Ciudad de México,Progresista
633,15380,Ciudad de México,Venustiano Carranza,Ciudad de México,Escuela de Tiro
634,15390,Ciudad de México,Venustiano Carranza,Ciudad de México,7 de Julio
635,15400,Ciudad de México,Venustiano Carranza,Ciudad de México,Romero Rubio
636,15410,Ciudad de México,Venustiano Carranza,Ciudad de México,Simón Bolívar
637,15420,Ciudad de México,Venustiano Carranza,Ciudad de México,Ampliación Simón Bolívar
638,15430,Ciudad de México,Venustiano Carranza,Ciudad de México,Aquiles Serdán
639,15440,Ciudad de México,Venustiano Carranza,Ciudad de México,1° de Mayo
640,15450,Ciudad de México,Venustiano Carranza,Ciudad de México,Damián Carmona
641,15460,Ciudad de México,Venustiano Carranza,Ciudad de México,Revolución
642,15470,Ciudad de México,Venustiano Carranza,Ciudad de México,Miguel Hidalgo
643,15500,Ciudad de México,Venustiano Carranza,Ciudad de México,Moctezuma 1a Sección
644,15510,Ciudad de México,Venustiano Carranza,Ciudad de México,Pensador Mexicano
645,15520,Ciudad de México,Venustiano Carranza,Ciudad de México,Peñón de los Baños
646,15530,Ciudad de México,Venustiano Carranza,Ciudad de México,Moctezuma 2a Sección
647,15540,Ciudad de México,Venustiano Carranza,Ciudad de México,Santa Cruz Aviación
648,15600,Ciudad de México,Venustiano Carranza,Ciudad de México,Arenal 1a Sección
649,15610,Ciudad de México,Venustiano Carranza,Ciudad de México,Cuchilla Pantitlán
650,15620,Ciudad de México,Venustiano Carranza,Ciudad de México,México (Lic. Benito Juárez)
651,15630,Ciudad de México,Venustiano Carranza,Ciudad de México,Caracol
652,16776,Ciudad de México,Xochimilco,Ciudad de México,El Mirador
653,16780,Ciudad de México,Xochimilco,Ciudad de México,Cerrillos Primera Sección
654,16780,Ciudad de México,Xochimilco,Ciudad de México,El Sacrificio
655,16780,Ciudad de México,Xochimilco,Ciudad de México,Cristo Rey
656,16780,Ciudad de México,Xochimilco,Ciudad de México,Cerrillos Segunda Sección
657,16780,Ciudad de México,Xochimilco,Ciudad de México,Cerrillos Tercera Sección
658,16797,Ciudad de México,Xochimilco,Ciudad de México,Nativitas
659,16799,Ciudad de México,Xochimilco,Ciudad de México,Las Mesitas
660,16800,Ciudad de México,Xochimilco,Ciudad de México,San Mateo Xalpa
661,16810,Ciudad de México,Xochimilco,Ciudad de México,San Andrés Ahuayucan
662,16810,Ciudad de México,Xochimilco,Ciudad de México,Santa Inés
663,16810,Ciudad de México,Xochimilco,Ciudad de México,Rosario Tlali
664,16813,Ciudad de México,Xochimilco,Ciudad de México,El Calvario
665,16840,Ciudad de México,Xochimilco,Ciudad de México,Santa Cruz Chavarrieta
666,16850,Ciudad de México,Xochimilco,Ciudad de México,Chapultepec
667,16860,Ciudad de México,Xochimilco,Ciudad de México,Santa Cruz de Guadalupe
668,16880,Ciudad de México,Xochimilco,Ciudad de México,Santa Cecilia Tepetlapa
669,16900,Ciudad de México,Xochimilco,Ciudad de México,San Francisco Tlalnepantla
670,1857,Ciudad de México,Álvaro Obregón,Ciudad de México,Lomas de Chamontoya
671,1859,Ciudad de México,Álvaro Obregón,Ciudad de México,Tlacoyaque
672,1860,Ciudad de México,Álvaro Obregón,Ciudad de México,Lomas de La Era
673,1863,Ciudad de México,Álvaro Obregón,Ciudad de México,Lomas del Capulín
674,1870,Ciudad de México,Álvaro Obregón,Ciudad de México,Lomas de los Cedros
675,1900,Ciudad de México,Álvaro Obregón,Ciudad de México,Jardines del Pedregal
676,1904,Ciudad de México,Álvaro Obregón,Ciudad de México,San Jerónimo Aculco
677,2000,Ciudad de México,Azcapotzalco,Ciudad de México,Centro de Azcapotzalco
678,2010,Ciudad de México,Azcapotzalco,Ciudad de México,Los Reyes
679,2010,Ciudad de México,Azcapotzalco,Ciudad de México,San Rafael
680,2010,Ciudad de México,Azcapotzalco,Ciudad de México,Nuevo Barrio San Rafael
681,2020,Ciudad de México,Azcapotzalco,Ciudad de México,San Marcos
682,2020,Ciudad de México,Azcapotzalco,Ciudad de México,Santo Tomás
683,2040,Ciudad de México,Azcapotzalco,Ciudad de México,Del Maestro
684,2040,Ciudad de México,Azcapotzalco,Ciudad de México,San Sebastián
685,2050,Ciudad de México,Azcapotzalco,Ciudad de México,Libertad
686,2050,Ciudad de México,Azcapotzalco,Ciudad de México,Santa María Malinalco
687,2060,Ciudad de México,Azcapotzalco,Ciudad de México,Sindicato Mexicano de Electricistas
688,2060,Ciudad de México,Azcapotzalco,Ciudad de México,Un Hogar Para Cada Trabajador
689,2070,Ciudad de México,Azcapotzalco,Ciudad de México,Del Recreo
690,2070,Ciudad de México,Azcapotzalco,Ciudad de México,Nextengo
691,2080,Ciudad de México,Azcapotzalco,Ciudad de México,Clavería
692,2080,Ciudad de México,Azcapotzalco,Ciudad de México,Sector Naval
693,2090,Ciudad de México,Azcapotzalco,Ciudad de México,San Álvaro
694,2099,Ciudad de México,Azcapotzalco,Ciudad de México,Ángel Zimbrón
695,2100,Ciudad de México,Azcapotzalco,Ciudad de México,El Rosario
696,2120,Ciudad de México,Azcapotzalco,Ciudad de México,San Martín Xochinahuac
697,2128,Ciudad de México,Azcapotzalco,Ciudad de México,Nueva El Rosario
698,2129,Ciudad de México,Azcapotzalco,Ciudad de México,Nueva España
699,2130,Ciudad de México,Azcapotzalco,Ciudad de México,Tierra Nueva
700,2140,Ciudad de México,Azcapotzalco,Ciudad de México,Santa Inés
701,2150,Ciudad de México,Azcapotzalco,Ciudad de México,Pasteros
702,2160,Ciudad de México,Azcapotzalco,Ciudad de México,Santo Domingo
703,2200,Ciudad de México,Azcapotzalco,Ciudad de México,Reynosa Tamaulipas
704,2230,Ciudad de México,Azcapotzalco,Ciudad de México,Santa Bárbara
705,2240,Ciudad de México,Azcapotzalco,Ciudad de México,San Andrés
706,2240,Ciudad de México,Azcapotzalco,Ciudad de México,San Andrés
707,2250,Ciudad de México,Azcapotzalco,Ciudad de México,Santa Catarina
708,2300,Ciudad de México,Azcapotzalco,Ciudad de México,Industrial Vallejo
709,2310,Ciudad de México,Azcapotzalco,Ciudad de México,Ferrería
710,2320,Ciudad de México,Azcapotzalco,Ciudad de México,San Andrés de las Salinas
711,2330,Ciudad de México,Azcapotzalco,Ciudad de México,Huautla de las Salinas
712,2340,Ciudad de México,Azcapotzalco,Ciudad de México,Santa Cruz de las Salinas
713,2360,Ciudad de México,Azcapotzalco,Ciudad de México,Las Salinas
714,2400,Ciudad de México,Azcapotzalco,Ciudad de México,San Juan Tlihuaca
715,2410,Ciudad de México,Azcapotzalco,Ciudad de México,Prados del Rosario
716,2420,Ciudad de México,Azcapotzalco,Ciudad de México,Ex-Hacienda El Rosario
717,2440,Ciudad de México,Azcapotzalco,Ciudad de México,Providencia
718,2459,Ciudad de México,Azcapotzalco,Ciudad de México,Tezozomoc
719,2460,Ciudad de México,Azcapotzalco,Ciudad de México,La Preciosa
720,2470,Ciudad de México,Azcapotzalco,Ciudad de México,Ampliación Petrolera
721,4620,Ciudad de México,Coyoacán,Ciudad de México,San Pablo Tepetlapa
722,4630,Ciudad de México,Coyoacán,Ciudad de México,Adolfo Ruiz Cortínes
723,4640,Ciudad de México,Coyoacán,Ciudad de México,El Reloj
724,4650,Ciudad de México,Coyoacán,Ciudad de México,Santa Úrsula Coapa
725,4660,Ciudad de México,Coyoacán,Ciudad de México,Joyas del Pedregal
726,4700,Ciudad de México,Coyoacán,Ciudad de México,Pedregal de Carrasco
727,4710,Ciudad de México,Coyoacán,Ciudad de México,Olímpica
728,4730,Ciudad de México,Coyoacán,Ciudad de México,Cantil del Pedregal
729,4730,Ciudad de México,Coyoacán,Ciudad de México,Bosques de Tetlameya
730,4739,Ciudad de México,Coyoacán,Ciudad de México,El Caracol
731,4800,Ciudad de México,Coyoacán,Ciudad de México,Alianza Popular Revolucionaria
732,4800,Ciudad de México,Coyoacán,Ciudad de México,Los Cedros
733,4810,Ciudad de México,Coyoacán,Ciudad de México,Prados de Coyoacán
734,4815,Ciudad de México,Coyoacán,Ciudad de México,Emiliano Zapata
735,4830,Ciudad de México,Coyoacán,Ciudad de México,Los Cipreses
736,4840,Ciudad de México,Coyoacán,Ciudad de México,Ex-Ejido de San Pablo Tepetlapa
737,4870,Ciudad de México,Coyoacán,Ciudad de México,Espartaco
738,4890,Ciudad de México,Coyoacán,Ciudad de México,Jardines de Coyoacán
739,4890,Ciudad de México,Coyoacán,Ciudad de México,Los Olivos
740,4899,Ciudad de México,Coyoacán,Ciudad de México,El Parque de Coyoacán
741,4909,Ciudad de México,Coyoacán,Ciudad de México,Culhuacán CTM Sección VIII
742,4909,Ciudad de México,Coyoacán,Ciudad de México,Culhuacán CTM Sección IX-A
743,4909,Ciudad de México,Coyoacán,Ciudad de México,Culhuacán CTM Sección IX-B
744,4910,Ciudad de México,Coyoacán,Ciudad de México,Carmen Serdán
745,4918,Ciudad de México,Coyoacán,Ciudad de México,Cafetales
746,4919,Ciudad de México,Coyoacán,Ciudad de México,Emiliano Zapata Fraccionamiento Popular
747,4920,Ciudad de México,Coyoacán,Ciudad de México,Los Girasoles
748,4929,Ciudad de México,Coyoacán,Ciudad de México,Las Campanas
749,4930,Ciudad de México,Coyoacán,Ciudad de México,Santa Cecilia
750,4938,Ciudad de México,Coyoacán,Ciudad de México,Campestre Coyoacán
751,4939,Ciudad de México,Coyoacán,Ciudad de México,Culhuacán CTM Sección X
752,4940,Ciudad de México,Coyoacán,Ciudad de México,Los Sauces
753,4950,Ciudad de México,Coyoacán,Ciudad de México,El Mirador
754,4960,Ciudad de México,Coyoacán,Ciudad de México,Villa Quietud
755,4970,Ciudad de México,Coyoacán,Ciudad de México,Haciendas de Coyoacán
756,4980,Ciudad de México,Coyoacán,Ciudad de México,Ex-Ejido de Santa Úrsula Coapa
757,4980,Ciudad de México,Coyoacán,Ciudad de México,Ex-Hacienda Coapa
758,4980,Ciudad de México,Coyoacán,Ciudad de México,Viejo Ejido de Santa Úrsula Coapa
759,5000,Ciudad de México,Cuajimalpa de Morelos,Ciudad de México,Cuajimalpa
760,5010,Ciudad de México,Cuajimalpa de Morelos,Ciudad de México,Zentlapatl
761,5020,Ciudad de México,Cuajimalpa de Morelos,Ciudad de México,Loma del Padre
762,5030,Ciudad de México,Cuajimalpa de Morelos,Ciudad de México,San Pedro
763,5030,Ciudad de México,Cuajimalpa de Morelos,Ciudad de México,La Manzanita
764,5039,Ciudad de México,Cuajimalpa de Morelos,Ciudad de México,Ahuatenco
765,5050,Ciudad de México,Cuajimalpa de Morelos,Ciudad de México,San Pablo Chimalpa
766,5100,Ciudad de México,Cuajimalpa de Morelos,Ciudad de México,Lomas de Vista Hermosa
767,5110,Ciudad de México,Cuajimalpa de Morelos,Ciudad de México,Cooperativa Palo Alto
768,5118,Ciudad de México,Cuajimalpa de Morelos,Ciudad de México,Granjas Palo Alto
769,5119,Ciudad de México,Cuajimalpa de Morelos,Ciudad de México,Campestre Palo Alto
770,5120,Ciudad de México,Cuajimalpa de Morelos,Ciudad de México,Bosques de las Lomas
771,5129,Ciudad de México,Cuajimalpa de Morelos,Ciudad de México,Lomas del Chamizal
772,5200,Ciudad de México,Cuajimalpa de Morelos,Ciudad de México,San José de los Cedros
773,5219,Ciudad de México,Cuajimalpa de Morelos,Ciudad de México,Granjas Navidad
774,5220,Ciudad de México,Cuajimalpa de Morelos,Ciudad de México,Tepetongo
775,5230,Ciudad de México,Cuajimalpa de Morelos,Ciudad de México,El Ébano
776,7470,Ciudad de México,Gustavo A. Madero,Ciudad de México,Ampliación San Juan de Aragón
777,7480,Ciudad de México,Gustavo A. Madero,Ciudad de México,San Pedro El Chico
778,7500,Ciudad de México,Gustavo A. Madero,Ciudad de México,La Pradera
779,7509,Ciudad de México,Gustavo A. Madero,Ciudad de México,Pradera II Sección
780,7510,Ciudad de México,Gustavo A. Madero,Ciudad de México,San Felipe de Jesús
781,7520,Ciudad de México,Gustavo A. Madero,Ciudad de México,25 de Julio
782,7530,Ciudad de México,Gustavo A. Madero,Ciudad de México,Campestre Aragón
783,7540,Ciudad de México,Gustavo A. Madero,Ciudad de México,La Esmeralda
784,7550,Ciudad de México,Gustavo A. Madero,Ciudad de México,Providencia
785,7560,Ciudad de México,Gustavo A. Madero,Ciudad de México,Ampliación Providencia
786,7570,Ciudad de México,Gustavo A. Madero,Ciudad de México,Villa de Aragón
787,7580,Ciudad de México,Gustavo A. Madero,Ciudad de México,Ampliación Casas Alemán
788,7600,Ciudad de México,Gustavo A. Madero,Ciudad de México,Progreso Nacional
789,7620,Ciudad de México,Gustavo A. Madero,Ciudad de México,Santa Rosa
790,7630,Ciudad de México,Gustavo A. Madero,Ciudad de México,San José de la Escalera
791,7640,Ciudad de México,Gustavo A. Madero,Ciudad de México,Santiago Atepetlac
792,7650,Ciudad de México,Gustavo A. Madero,Ciudad de México,Ampliación Progreso Nacional
793,7670,Ciudad de México,Gustavo A. Madero,Ciudad de México,Guadalupe Proletaria
794,7680,Ciudad de México,Gustavo A. Madero,Ciudad de México,Ampliación Guadalupe Proletaria
795,7700,Ciudad de México,Gustavo A. Madero,Ciudad de México,Nueva Industrial Vallejo
796,7707,Ciudad de México,Gustavo A. Madero,Ciudad de México,Siete Maravillas
797,7708,Ciudad de México,Gustavo A. Madero,Ciudad de México,Torres Lindavista
798,7720,Ciudad de México,Gustavo A. Madero,Ciudad de México,Lindavista Vallejo I Sección
799,7730,Ciudad de México,Gustavo A. Madero,Ciudad de México,Churubusco Tepeyac
800,7730,Ciudad de México,Gustavo A. Madero,Ciudad de México,Montevideo
801,7730,Ciudad de México,Gustavo A. Madero,Ciudad de México,San Bartolo Atepehuacan
802,7739,Ciudad de México,Gustavo A. Madero,Ciudad de México,Planetario Lindavista
803,7740,Ciudad de México,Gustavo A. Madero,Ciudad de México,Valle del Tepeyac
804,7750,Ciudad de México,Gustavo A. Madero,Ciudad de México,Nueva Vallejo
805,7754,Ciudad de México,Gustavo A. Madero,Ciudad de México,Lindavista Vallejo III Sección
806,7755,Ciudad de México,Gustavo A. Madero,Ciudad de México,Lindavista Vallejo II Sección
807,7760,Ciudad de México,Gustavo A. Madero,Ciudad de México,Magdalena de las Salinas
808,7770,Ciudad de México,Gustavo A. Madero,Ciudad de México,Panamericana
809,7770,Ciudad de México,Gustavo A. Madero,Ciudad de México,Ampliación Panamericana
810,7780,Ciudad de México,Gustavo A. Madero,Ciudad de México,Defensores de La República
811,7780,Ciudad de México,Gustavo A. Madero,Ciudad de México,Héroe de Nacozari
812,7790,Ciudad de México,Gustavo A. Madero,Ciudad de México,Guadalupe Victoria
813,7790,Ciudad de México,Gustavo A. Madero,Ciudad de México,Vallejo Poniente
814,7800,Ciudad de México,Gustavo A. Madero,Ciudad de México,Industrial
815,7810,Ciudad de México,Gustavo A. Madero,Ciudad de México,Estrella
816,7820,Ciudad de México,Gustavo A. Madero,Ciudad de México,Aragón Inguarán
817,7820,Ciudad de México,Gustavo A. Madero,Ciudad de México,Tres Estrellas
818,7830,Ciudad de México,Gustavo A. Madero,Ciudad de México,Gertrudis Sánchez 1a Sección
819,7838,Ciudad de México,Gustavo A. Madero,Ciudad de México,Gertrudis Sánchez 3a Sección
820,7839,Ciudad de México,Gustavo A. Madero,Ciudad de México,Gertrudis Sánchez 2a Sección
821,7840,Ciudad de México,Gustavo A. Madero,Ciudad de México,Guadalupe Tepeyac
822,7840,Ciudad de México,Gustavo A. Madero,Ciudad de México,7 de Noviembre
823,7850,Ciudad de México,Gustavo A. Madero,Ciudad de México,Bondojito
824,7850,Ciudad de México,Gustavo A. Madero,Ciudad de México,Faja de Oro
825,7858,Ciudad de México,Gustavo A. Madero,Ciudad de México,Ampliación Emiliano Zapata
826,7859,Ciudad de México,Gustavo A. Madero,Ciudad de México,Ampliación Mártires de Río Blanco
827,7860,Ciudad de México,Gustavo A. Madero,Ciudad de México,La Joyita
828,7860,Ciudad de México,Gustavo A. Madero,Ciudad de México,Tablas de San Agustín
829,7869,Ciudad de México,Gustavo A. Madero,Ciudad de México,Belisario Domínguez
830,7870,Ciudad de México,Gustavo A. Madero,Ciudad de México,Guadalupe Insurgentes
831,9638,Ciudad de México,Iztapalapa,Ciudad de México,Ampliación Emiliano Zapata
832,9640,Ciudad de México,Iztapalapa,Ciudad de México,Lomas de la Estancia
833,9640,Ciudad de México,Iztapalapa,Ciudad de México,Xalpa
834,9648,Ciudad de México,Iztapalapa,Ciudad de México,San Pablo
835,9660,Ciudad de México,Iztapalapa,Ciudad de México,Citlalli
836,9670,Ciudad de México,Iztapalapa,Ciudad de México,Palmitas
837,9680,Ciudad de México,Iztapalapa,Ciudad de México,Tenorios
838,9689,Ciudad de México,Iztapalapa,Ciudad de México,Barranca de Guadalupe
839,9690,Ciudad de México,Iztapalapa,Ciudad de México,Iztlahuacán
840,9696,Ciudad de México,Iztapalapa,Ciudad de México,Miravalles
841,9698,Ciudad de México,Iztapalapa,Ciudad de México,Miguel de La Madrid Hurtado
842,9700,Ciudad de México,Iztapalapa,Ciudad de México,Buenavista
843,9700,Ciudad de México,Iztapalapa,Ciudad de México,Carlos Hank Gonzalez
844,9700,Ciudad de México,Iztapalapa,Ciudad de México,Desarrollo Urbano Quetzalcoatl
845,9700,Ciudad de México,Iztapalapa,Ciudad de México,Santa Cruz Meyehualco
846,9704,Ciudad de México,Iztapalapa,Ciudad de México,Degollado
847,9705,Ciudad de México,Iztapalapa,Ciudad de México,Degollado - Mexicatlalli
848,9706,Ciudad de México,Iztapalapa,Ciudad de México,San José Buenavista
849,9708,Ciudad de México,Iztapalapa,Ciudad de México,Mixcoatl
850,9709,Ciudad de México,Iztapalapa,Ciudad de México,Lomas de Santa Cruz
851,9710,Ciudad de México,Iztapalapa,Ciudad de México,Los Ángeles Apanoaya
852,9720,Ciudad de México,Iztapalapa,Ciudad de México,Francisco Villa
853,9720,Ciudad de México,Iztapalapa,Ciudad de México,La Era
854,9730,Ciudad de México,Iztapalapa,Ciudad de México,Reforma Política
855,9740,Ciudad de México,Iztapalapa,Ciudad de México,Presidentes de México
856,9750,Ciudad de México,Iztapalapa,Ciudad de México,Insurgentes
857,9750,Ciudad de México,Iztapalapa,Ciudad de México,La Polvorilla
858,9750,Ciudad de México,Iztapalapa,Ciudad de México,Las Peñas
859,9760,Ciudad de México,Iztapalapa,Ciudad de México,Consejo Agrarista Mexicano
860,9769,Ciudad de México,Iztapalapa,Ciudad de México,El Triángulo
861,9770,Ciudad de México,Iztapalapa,Ciudad de México,Puente Blanco
862,9780,Ciudad de México,Iztapalapa,Ciudad de México,Año de Juárez
863,9780,Ciudad de México,Iztapalapa,Ciudad de México,Lomas de San Lorenzo
864,9790,Ciudad de México,Iztapalapa,Ciudad de México,San Lorenzo Tezonco
865,9800,Ciudad de México,Iztapalapa,Ciudad de México,Culhuacán
866,9800,Ciudad de México,Iztapalapa,Ciudad de México,El Mirador
867,9800,Ciudad de México,Iztapalapa,Ciudad de México,Estrella Culhuacán
868,9800,Ciudad de México,Iztapalapa,Ciudad de México,Fuego Nuevo
869,9800,Ciudad de México,Iztapalapa,Ciudad de México,San Antonio Culhuacán
870,9800,Ciudad de México,Iztapalapa,Ciudad de México,San Antonio Culhuacán
871,9800,Ciudad de México,Iztapalapa,Ciudad de México,San Simón Culhuacán
872,9800,Ciudad de México,Iztapalapa,Ciudad de México,Tula
873,9800,Ciudad de México,Iztapalapa,Ciudad de México,Valle de Luces
874,9810,Ciudad de México,Iztapalapa,Ciudad de México,Granjas Esmeralda
875,9810,Ciudad de México,Iztapalapa,Ciudad de México,Los Cipreses
876,9810,Ciudad de México,Iztapalapa,Ciudad de México,Minerva
877,9810,Ciudad de México,Iztapalapa,Ciudad de México,Progreso del Sur
878,9819,Ciudad de México,Iztapalapa,Ciudad de México,Valle del Sur
879,9820,Ciudad de México,Iztapalapa,Ciudad de México,El Santuario
880,9820,Ciudad de México,Iztapalapa,Ciudad de México,Estrella del Sur
881,9820,Ciudad de México,Iztapalapa,Ciudad de México,Ricardo Flores Magón
882,9820,Ciudad de México,Iztapalapa,Ciudad de México,Santa Isabel Industrial
883,9828,Ciudad de México,Iztapalapa,Ciudad de México,Ampliación Ricardo Flores Magón
884,9829,Ciudad de México,Iztapalapa,Ciudad de México,Ampliación El Santuario
885,9830,Ciudad de México,Iztapalapa,Ciudad de México,El Manto
886,9830,Ciudad de México,Iztapalapa,Ciudad de México,El Molino
887,11590,Ciudad de México,Miguel Hidalgo,Ciudad de México,Anzures
888,11600,Ciudad de México,Miguel Hidalgo,Ciudad de México,Residencial Militar
889,11610,Ciudad de México,Miguel Hidalgo,Ciudad de México,Manuel Avila Camacho
890,11619,Ciudad de México,Miguel Hidalgo,Ciudad de México,Campo Militar 1
891,11650,Ciudad de México,Miguel Hidalgo,Ciudad de México,Reforma Social
892,11700,Ciudad de México,Miguel Hidalgo,Ciudad de México,Bosque de las Lomas
893,11800,Ciudad de México,Miguel Hidalgo,Ciudad de México,Escandón I Sección
894,11800,Ciudad de México,Miguel Hidalgo,Ciudad de México,Escandón II Sección
895,11810,Ciudad de México,Miguel Hidalgo,Ciudad de México,16 de Septiembre
896,11820,Ciudad de México,Miguel Hidalgo,Ciudad de México,América
897,11830,Ciudad de México,Miguel Hidalgo,Ciudad de México,Daniel Garza
898,11840,Ciudad de México,Miguel Hidalgo,Ciudad de México,Ampliación Daniel Garza
899,11850,Ciudad de México,Miguel Hidalgo,Ciudad de México,San Miguel Chapultepec I Sección
900,11850,Ciudad de México,Miguel Hidalgo,Ciudad de México,San Miguel Chapultepec II Sección
901,11860,Ciudad de México,Miguel Hidalgo,Ciudad de México,Observatorio
902,11870,Ciudad de México,Miguel Hidalgo,Ciudad de México,Tacubaya
903,11910,Ciudad de México,Miguel Hidalgo,Ciudad de México,Lomas de Bezares
904,11920,Ciudad de México,Miguel Hidalgo,Ciudad de México,Real de las Lomas
905,11930,Ciudad de México,Miguel Hidalgo,Ciudad de México,Lomas de Reforma
906,11950,Ciudad de México,Miguel Hidalgo,Ciudad de México,Lomas Altas
907,12000,Ciudad de México,Milpa Alta,Ciudad de México,La Concepción
908,12000,Ciudad de México,Milpa Alta,Ciudad de México,La Luz
909,12000,Ciudad de México,Milpa Alta,Ciudad de México,Los Ángeles
910,12000,Ciudad de México,Milpa Alta,Ciudad de México,San Mateo
911,12000,Ciudad de México,Milpa Alta,Ciudad de México,Santa Cruz
912,12000,Ciudad de México,Milpa Alta,Ciudad de México,Santa Martha
913,12000,Ciudad de México,Milpa Alta,Ciudad de México,Villa Milpa Alta Centro
914,12070,Ciudad de México,Milpa Alta,Ciudad de México,San Agustin
915,12080,Ciudad de México,Milpa Alta,Ciudad de México,San Agustin Ohtenco
916,12100,Ciudad de México,Milpa Alta,Ciudad de México,Cruztitla
917,12100,Ciudad de México,Milpa Alta,Ciudad de México,Tecaxtitla
918,12100,Ciudad de México,Milpa Alta,Ciudad de México,Tenantitla
919,12100,Ciudad de México,Milpa Alta,Ciudad de México,Xaltipac
920,12100,Ciudad de México,Milpa Alta,Ciudad de México,Xochitepec
921,12110,Ciudad de México,Milpa Alta,Ciudad de México,Emiliano Zapata
922,12110,Ciudad de México,Milpa Alta,Ciudad de México,La Conchita
923,12200,Ciudad de México,Milpa Alta,Ciudad de México,Nochtla
924,12200,Ciudad de México,Milpa Alta,Ciudad de México,Ocotitla
925,12200,Ciudad de México,Milpa Alta,Ciudad de México,Panchimalco
926,12200,Ciudad de México,Milpa Alta,Ciudad de México,Tula
927,12250,Ciudad de México,Milpa Alta,Ciudad de México,San Bartolomé Xicomulco
928,12300,Ciudad de México,Milpa Alta,Ciudad de México,San Salvador Cuauhtenco
929,12400,Ciudad de México,Milpa Alta,Ciudad de México,Centro
930,12400,Ciudad de México,Milpa Alta,Ciudad de México,San Juan
931,12400,Ciudad de México,Milpa Alta,Ciudad de México,San Miguel
932,12410,Ciudad de México,Milpa Alta,Ciudad de México,Chalmita
933,12500,Ciudad de México,Milpa Alta,Ciudad de México,San Lorenzo Tlacoyucan
934,12600,Ciudad de México,Milpa Alta,Ciudad de México,San Jerónimo Miacatlán
935,12700,Ciudad de México,Milpa Alta,Ciudad de México,San Francisco Tecoxpa
936,12800,Ciudad de México,Milpa Alta,Ciudad de México,San Juan Tepenahuac
937,12910,Ciudad de México,Milpa Alta,Ciudad de México,La Lupita Teticpac
938,12920,Ciudad de México,Milpa Alta,Ciudad de México,San Marcos
939,12930,Ciudad de México,Milpa Alta,Ciudad de México,San Miguel
940,12940,Ciudad de México,Milpa Alta,Ciudad de México,San José
941,12950,Ciudad de México,Milpa Alta,Ciudad de México,La Lupita Xolco
942,13000,Ciudad de México,Tláhuac,Ciudad de México,La Asunción
943,13010,Ciudad de México,Tláhuac,Ciudad de México,Santa Cecilia
944,14239,Ciudad de México,Tlalpan,Ciudad de México,Los Encinos
945,14240,Ciudad de México,Tlalpan,Ciudad de México,Lomas de Padierna
946,14240,Ciudad de México,Tlalpan,Ciudad de México,Lomas Hidalgo
947,14248,Ciudad de México,Tlalpan,Ciudad de México,Cruz del Farol
948,14250,Ciudad de México,Tlalpan,Ciudad de México,Miguel Hidalgo 2A Sección
949,14250,Ciudad de México,Tlalpan,Ciudad de México,Miguel Hidalgo 3A Sección
950,14250,Ciudad de México,Tlalpan,Ciudad de México,Miguel Hidalgo 4A Sección
951,14250,Ciudad de México,Tlalpan,Ciudad de México,Miguel Hidalgo
952,14260,Ciudad de México,Tlalpan,Ciudad de México,El Capulín
953,14260,Ciudad de México,Tlalpan,Ciudad de México,Miguel Hidalgo 1A Sección
954,14266,Ciudad de México,Tlalpan,Ciudad de México,Zacayucan Peña Pobre
955,14267,Ciudad de México,Tlalpan,Ciudad de México,De Caramagüey
956,14268,Ciudad de México,Tlalpan,Ciudad de México,La Lonja
957,14269,Ciudad de México,Tlalpan,Ciudad de México,La Fama
958,14270,Ciudad de México,Tlalpan,Ciudad de México,Primavera
959,14273,Ciudad de México,Tlalpan,Ciudad de México,Solidaridad
960,14275,Ciudad de México,Tlalpan,Ciudad de México,Paraje 38
961,14276,Ciudad de México,Tlalpan,Ciudad de México,Verano
962,14300,Ciudad de México,Tlalpan,Ciudad de México,Nueva Oriental Coapa
963,14300,Ciudad de México,Tlalpan,Ciudad de México,Residencial Acoxpa
964,14300,Ciudad de México,Tlalpan,Ciudad de México,Residencial Miramontes
965,14308,Ciudad de México,Tlalpan,Ciudad de México,Ex Hacienda Coapa
966,14310,Ciudad de México,Tlalpan,Ciudad de México,Belisario Domínguez
967,14310,Ciudad de México,Tlalpan,Ciudad de México,Floresta Coyoacán
968,14320,Ciudad de México,Tlalpan,Ciudad de México,Vergel Coapa
969,14325,Ciudad de México,Tlalpan,Ciudad de México,Rinconada Coapa 2A Sección
970,14326,Ciudad de México,Tlalpan,Ciudad de México,Tenorios
971,14330,Ciudad de México,Tlalpan,Ciudad de México,Granjas Coapa
972,14330,Ciudad de México,Tlalpan,Ciudad de México,Rinconada Coapa 1A Sección
973,14340,Ciudad de México,Tlalpan,Ciudad de México,Vergel de Coyoacán
974,14340,Ciudad de México,Tlalpan,Ciudad de México,Vergel del Sur
975,14350,Ciudad de México,Tlalpan,Ciudad de México,Prado Coapa 1A Sección
976,14357,Ciudad de México,Tlalpan,Ciudad de México,Prado Coapa 2A Sección
977,14357,Ciudad de México,Tlalpan,Ciudad de México,Prado Coapa 3A Sección
978,14360,Ciudad de México,Tlalpan,Ciudad de México,Magisterial
979,14360,Ciudad de México,Tlalpan,Ciudad de México,Magisterial Coapa
980,14370,Ciudad de México,Tlalpan,Ciudad de México,Residencial Chimali
981,14370,Ciudad de México,Tlalpan,Ciudad de México,San Lorenzo Huipulco
982,14370,Ciudad de México,Tlalpan,Ciudad de México,Villa Lázaro Cárdenas
983,14376,Ciudad de México,Tlalpan,Ciudad de México,Arboledas del Sur
984,14377,Ciudad de México,Tlalpan,Ciudad de México,Hacienda San Juan
985,14380,Ciudad de México,Tlalpan,Ciudad de México,A.M.S.A
986,14380,Ciudad de México,Tlalpan,Ciudad de México,San Bartolo El Chico
987,14386,Ciudad de México,Tlalpan,Ciudad de México,Rancho los Colorines
988,14387,Ciudad de México,Tlalpan,Ciudad de México,Ex Hacienda San Juan de Dios
989,14388,Ciudad de México,Tlalpan,Ciudad de México,Guadalupe
990,14389,Ciudad de México,Tlalpan,Ciudad de México,Arenal de Guadalupe
991,14390,Ciudad de México,Tlalpan,Ciudad de México,Rinconada Las Hadas
992,14390,Ciudad de México,Tlalpan,Ciudad de México,Narciso Mendoza
993,14390,Ciudad de México,Tlalpan,Ciudad de México,Residencial Villa Coapa
994,14390,Ciudad de México,Tlalpan,Ciudad de México,Villa Coapa
995,14400,Ciudad de México,Tlalpan,Ciudad de México,San Andrés Totoltepec
996,14406,Ciudad de México,Tlalpan,Ciudad de México,Divisadero
997,14408,Ciudad de México,Tlalpan,Ciudad de México,Nuevo Renacimiento de Axalco
998,14409,Ciudad de México,Tlalpan,Ciudad de México,Tecorral
999,14410,Ciudad de México,Tlalpan,Ciudad de México,Fuentes Brotantes
1000,14420,Ciudad de México,Tlalpan,Ciudad de México,Cumbres de Tepetongo
1001,14420,Ciudad de México,Tlalpan,Ciudad de México,Mesa de los Hornos
1002,14420,Ciudad de México,Tlalpan,Ciudad de México,Santa Úrsula Xitla
1003,14426,Ciudad de México,Tlalpan,Ciudad de México,Texcaltenco
1004,14426,Ciudad de México,Tlalpan,Ciudad de México,Tlaxcaltenco la Mesa
1005,14427,Ciudad de México,Tlalpan,Ciudad de México,San Juan Tepeximilpa
1006,15640,Ciudad de México,Venustiano Carranza,Ciudad de México,Arenal 4a Sección
1007,15640,Ciudad de México,Venustiano Carranza,Ciudad de México,Arenal Puerto Aéreo
1008,15650,Ciudad de México,Venustiano Carranza,Ciudad de México,Ampliación Caracol
1009,15660,Ciudad de México,Venustiano Carranza,Ciudad de México,Arenal 3a Sección
1010,15670,Ciudad de México,Venustiano Carranza,Ciudad de México,Adolfo López Mateos
1011,15680,Ciudad de México,Venustiano Carranza,Ciudad de México,Arenal 2a Sección
1012,15700,Ciudad de México,Venustiano Carranza,Ciudad de México,Federal
1013,15710,Ciudad de México,Venustiano Carranza,Ciudad de México,Industrial Puerto Aéreo
1014,15730,Ciudad de México,Venustiano Carranza,Ciudad de México,4 Árboles
1015,15740,Ciudad de México,Venustiano Carranza,Ciudad de México,Aviación Civil
1016,15750,Ciudad de México,Venustiano Carranza,Ciudad de México,Ampliación Aviación Civil
1017,15800,Ciudad de México,Venustiano Carranza,Ciudad de México,Jamaica
1018,15810,Ciudad de México,Venustiano Carranza,Ciudad de México,Merced Balbuena
1019,15820,Ciudad de México,Venustiano Carranza,Ciudad de México,Lorenzo Boturini
1020,15830,Ciudad de México,Venustiano Carranza,Ciudad de México,Artes Gráficas
1021,15840,Ciudad de México,Venustiano Carranza,Ciudad de México,Sevilla
1022,15850,Ciudad de México,Venustiano Carranza,Ciudad de México,Magdalena Mixiuhca
1023,15860,Ciudad de México,Venustiano Carranza,Ciudad de México,La Magdalena Mixiuhca
1024,15870,Ciudad de México,Venustiano Carranza,Ciudad de México,Aarón Sáenz
1025,15900,Ciudad de México,Venustiano Carranza,Ciudad de México,Jardín Balbuena
1026,15960,Ciudad de México,Venustiano Carranza,Ciudad de México,Del Parque
1027,15970,Ciudad de México,Venustiano Carranza,Ciudad de México,Aeronáutica Militar
1028,15980,Ciudad de México,Venustiano Carranza,Ciudad de México,24 de Abril
1029,15990,Ciudad de México,Venustiano Carranza,Ciudad de México,Álvaro Obregón
1030,16000,Ciudad de México,Xochimilco,Ciudad de México,La Concepción Tlacoapa
1031,16000,Ciudad de México,Xochimilco,Ciudad de México,San Antonio
1032,16000,Ciudad de México,Xochimilco,Ciudad de México,San Juan
1033,16010,Ciudad de México,Xochimilco,Ciudad de México,Bosque Residencial del Sur
1034,16010,Ciudad de México,Xochimilco,Ciudad de México,Las Peritas
1035,16010,Ciudad de México,Xochimilco,Ciudad de México,Paseos del Sur
1036,16010,Ciudad de México,Xochimilco,Ciudad de México,San Bartolo El Chico
1037,16020,Ciudad de México,Xochimilco,Ciudad de México,San Juan Tepepan
1038,16020,Ciudad de México,Xochimilco,Ciudad de México,Santa María Tepepan
1039,16029,Ciudad de México,Xochimilco,Ciudad de México,Ampliación Tepepan
1040,16030,Ciudad de México,Xochimilco,Ciudad de México,Huichapan
1041,16030,Ciudad de México,Xochimilco,Ciudad de México,La Noria
1042,16030,Ciudad de México,Xochimilco,Ciudad de México,Potrero de San Bernardino
1043,16030,Ciudad de México,Xochimilco,Ciudad de México,Ampliación La Noria
1044,16034,Ciudad de México,Xochimilco,Ciudad de México,18
1045,16035,Ciudad de México,Xochimilco,Ciudad de México,San Lorenzo La Cebada
1046,16035,Ciudad de México,Xochimilco,Ciudad de México,Rinconada Coapa
1047,16036,Ciudad de México,Xochimilco,Ciudad de México,Mercado de Flores Plantas y Hortalizas
1048,16038,Ciudad de México,Xochimilco,Ciudad de México,Ampliación San Marcos Norte
1049,16040,Ciudad de México,Xochimilco,Ciudad de México,La Asunción
1050,16040,Ciudad de México,Xochimilco,Ciudad de México,San Lorenzo
1051,16050,Ciudad de México,Xochimilco,Ciudad de México,Jardines del Sur
1052,16050,Ciudad de México,Xochimilco,Ciudad de México,San Marcos
1053,16050,Ciudad de México,Xochimilco,Ciudad de México,Tierra Nueva
1054,16059,Ciudad de México,Xochimilco,Ciudad de México,"Pblo. Stgo.Tepalcatlalpan, U. H. Rinconada del Sur"
1055,16060,Ciudad de México,Xochimilco,Ciudad de México,El Mirador
1056,16070,Ciudad de México,Xochimilco,Ciudad de México,Belén
1057,16070,Ciudad de México,Xochimilco,Ciudad de México,El Rosario
1058,16070,Ciudad de México,Xochimilco,Ciudad de México,La Guadalupita
1059,16070,Ciudad de México,Xochimilco,Ciudad de México,Santa Crucita
1060,1000,Ciudad de México,Álvaro Obregón,Ciudad de México,San Ángel
1061,1010,Ciudad de México,Álvaro Obregón,Ciudad de México,Los Alpes
1062,1020,Ciudad de México,Álvaro Obregón,Ciudad de México,Guadalupe Inn
1063,1030,Ciudad de México,Álvaro Obregón,Ciudad de México,Axotla
1064,1030,Ciudad de México,Álvaro Obregón,Ciudad de México,Florida
1065,1040,Ciudad de México,Álvaro Obregón,Ciudad de México,Campestre
1066,1049,Ciudad de México,Álvaro Obregón,Ciudad de México,Tlacopac
1067,1050,Ciudad de México,Álvaro Obregón,Ciudad de México,Ex-Hacienda de Guadalupe Chimalistac
1068,1060,Ciudad de México,Álvaro Obregón,Ciudad de México,Altavista
1069,1060,Ciudad de México,Álvaro Obregón,Ciudad de México,San Ángel Inn
1070,1070,Ciudad de México,Álvaro Obregón,Ciudad de México,Chimalistac
1071,1080,Ciudad de México,Álvaro Obregón,Ciudad de México,Progreso Tizapan
1072,1089,Ciudad de México,Álvaro Obregón,Ciudad de México,Ermita Tizapan
1073,1090,Ciudad de México,Álvaro Obregón,Ciudad de México,La Otra Banda
1074,1090,Ciudad de México,Álvaro Obregón,Ciudad de México,Loreto
1075,1090,Ciudad de México,Álvaro Obregón,Ciudad de México,Tizapan
1076,1100,Ciudad de México,Álvaro Obregón,Ciudad de México,Pólvora
1077,1109,Ciudad de México,Álvaro Obregón,Ciudad de México,La Conchita
1078,1110,Ciudad de México,Álvaro Obregón,Ciudad de México,Belém de las Flores
1079,1110,Ciudad de México,Álvaro Obregón,Ciudad de México,El Capulín
1080,1110,Ciudad de México,Álvaro Obregón,Ciudad de México,Ampliación El Capulín
1081,1110,Ciudad de México,Álvaro Obregón,Ciudad de México,Liberales de 1857
1082,1120,Ciudad de México,Álvaro Obregón,Ciudad de México,Acueducto
1083,1120,Ciudad de México,Álvaro Obregón,Ciudad de México,Cove
1084,1120,Ciudad de México,Álvaro Obregón,Ciudad de México,Hidalgo
1085,1120,Ciudad de México,Álvaro Obregón,Ciudad de México,Las Américas
1086,1125,Ciudad de México,Álvaro Obregón,Ciudad de México,Ampliación Acueducto
1087,1130,Ciudad de México,Álvaro Obregón,Ciudad de México,Paraíso
1088,1130,Ciudad de México,Álvaro Obregón,Ciudad de México,Molino de Santo Domingo
1089,1130,Ciudad de México,Álvaro Obregón,Ciudad de México,Real del Monte
1090,1139,Ciudad de México,Álvaro Obregón,Ciudad de México,Reacomodo Pino Suárez
1091,1140,Ciudad de México,Álvaro Obregón,Ciudad de México,Bellavista
1092,1140,Ciudad de México,Álvaro Obregón,Ciudad de México,José Maria Pino Suárez
1093,1150,Ciudad de México,Álvaro Obregón,Ciudad de México,Cristo Rey
1094,1150,Ciudad de México,Álvaro Obregón,Ciudad de México,Tolteca
1095,1160,Ciudad de México,Álvaro Obregón,Ciudad de México,Bosque
1096,1160,Ciudad de México,Álvaro Obregón,Ciudad de México,Isidro Fabela
1097,1160,Ciudad de México,Álvaro Obregón,Ciudad de México,Maria G. de García Ruiz
1098,1160,Ciudad de México,Álvaro Obregón,Ciudad de México,1a Victoria
1099,1170,Ciudad de México,Álvaro Obregón,Ciudad de México,Abraham M. González
1100,1180,Ciudad de México,Álvaro Obregón,Ciudad de México,Carola
1101,1180,Ciudad de México,Álvaro Obregón,Ciudad de México,8 de Agosto
1102,1180,Ciudad de México,Álvaro Obregón,Ciudad de México,San Pedro de los Pinos
1103,1200,Ciudad de México,Álvaro Obregón,Ciudad de México,Arturo Martínez
1104,1210,Ciudad de México,Álvaro Obregón,Ciudad de México,Santa Fe
1105,1219,Ciudad de México,Álvaro Obregón,Ciudad de México,Lomas de Santa Fe
1106,1220,Ciudad de México,Álvaro Obregón,Ciudad de México,Bonanza
1107,1220,Ciudad de México,Álvaro Obregón,Ciudad de México,Cuevitas
1108,1220,Ciudad de México,Álvaro Obregón,Ciudad de México,El Cuernito
1109,1220,Ciudad de México,Álvaro Obregón,Ciudad de México,Mártires de Tacubaya
1110,1220,Ciudad de México,Álvaro Obregón,Ciudad de México,Zenón Delgado
1111,1619,Ciudad de México,Álvaro Obregón,Ciudad de México,Rinconada de Tarango
1112,1620,Ciudad de México,Álvaro Obregón,Ciudad de México,Lomas de Tarango
1113,1630,Ciudad de México,Álvaro Obregón,Ciudad de México,Lomas de Puerta Grande
1114,1630,Ciudad de México,Álvaro Obregón,Ciudad de México,Puerta Grande
1115,1630,Ciudad de México,Álvaro Obregón,Ciudad de México,Los Juristas
1116,1640,Ciudad de México,Álvaro Obregón,Ciudad de México,Herón Proal
1117,1645,Ciudad de México,Álvaro Obregón,Ciudad de México,Ponciano Arriaga
1118,1650,Ciudad de México,Álvaro Obregón,Ciudad de México,La Milagrosa
1119,1650,Ciudad de México,Álvaro Obregón,Ciudad de México,Palmas Axotitla
1120,1650,Ciudad de México,Álvaro Obregón,Ciudad de México,Tlacuitlapa
1121,1650,Ciudad de México,Álvaro Obregón,Ciudad de México,Ampliación Tlacuitlapa
1122,1650,Ciudad de México,Álvaro Obregón,Ciudad de México,2o Reacomodo Tlacuitlapa
1123,1650,Ciudad de México,Álvaro Obregón,Ciudad de México,El Ruedo
1124,1650,Ciudad de México,Álvaro Obregón,Ciudad de México,Santa Lucía Chantepec
1125,1700,Ciudad de México,Álvaro Obregón,Ciudad de México,La Joyita del Pueblo Tetelpan
1126,1700,Ciudad de México,Álvaro Obregón,Ciudad de México,Ocotillos del Pueblo Tetelpan
1127,1700,Ciudad de México,Álvaro Obregón,Ciudad de México,San Agustín del Pueblo Tetelpan
1128,1700,Ciudad de México,Álvaro Obregón,Ciudad de México,2a Del Moral del Pueblo Tetelpan
1129,1700,Ciudad de México,Álvaro Obregón,Ciudad de México,Tecalcapa del Pueblo Tetelpan
1130,1700,Ciudad de México,Álvaro Obregón,Ciudad de México,Tetelpan
1131,1708,Ciudad de México,Álvaro Obregón,Ciudad de México,El Encino del Pueblo Tetelpan
1132,1708,Ciudad de México,Álvaro Obregón,Ciudad de México,El Mirador del Pueblo Tetelpan
1133,1710,Ciudad de México,Álvaro Obregón,Ciudad de México,Las Águilas
1134,1710,Ciudad de México,Álvaro Obregón,Ciudad de México,Ampliación Alpes
1135,1720,Ciudad de México,Álvaro Obregón,Ciudad de México,Lomas de Guadalupe
1136,1729,Ciudad de México,Álvaro Obregón,Ciudad de México,Alcantarilla
1137,1730,Ciudad de México,Álvaro Obregón,Ciudad de México,Lomas de las Águilas
1138,1730,Ciudad de México,Álvaro Obregón,Ciudad de México,Puente Colorado
1139,1740,Ciudad de México,Álvaro Obregón,Ciudad de México,La Peñita del Pueblo Tetelpan
1140,1740,Ciudad de México,Álvaro Obregón,Ciudad de México,San Clemente Norte
1141,1740,Ciudad de México,Álvaro Obregón,Ciudad de México,San Clemente Sur
1142,1750,Ciudad de México,Álvaro Obregón,Ciudad de México,Las Águilas 1a Sección
1143,1750,Ciudad de México,Álvaro Obregón,Ciudad de México,Las Águilas 2o Parque
1144,1750,Ciudad de México,Álvaro Obregón,Ciudad de México,Las Águilas 3er Parque
1145,1759,Ciudad de México,Álvaro Obregón,Ciudad de México,Ampliación Las Águilas
1146,1760,Ciudad de México,Álvaro Obregón,Ciudad de México,Atlamaya
1147,1760,Ciudad de México,Álvaro Obregón,Ciudad de México,Flor de María
1148,1760,Ciudad de México,Álvaro Obregón,Ciudad de México,La Herradura del Pueblo Tetelpan
1149,1770,Ciudad de México,Álvaro Obregón,Ciudad de México,La Angostura
1150,1770,Ciudad de México,Álvaro Obregón,Ciudad de México,San José del Olivar
1151,1780,Ciudad de México,Álvaro Obregón,Ciudad de México,Olivar de los Padres
1152,1780,Ciudad de México,Álvaro Obregón,Ciudad de México,Tizampampano del Pueblo Tetelpan
1153,1789,Ciudad de México,Álvaro Obregón,Ciudad de México,Miguel Hidalgo
1154,1790,Ciudad de México,Álvaro Obregón,Ciudad de México,Lomas de los Ángeles del Pueblo Tetelpan
1155,1790,Ciudad de México,Álvaro Obregón,Ciudad de México,Lomas de San Ángel Inn
1156,1800,Ciudad de México,Álvaro Obregón,Ciudad de México,San Bartolo Ameyalco
1157,1807,Ciudad de México,Álvaro Obregón,Ciudad de México,Rancho San Francisco Pueblo San Bartolo Ameyalco
1158,1810,Ciudad de México,Álvaro Obregón,Ciudad de México,Villa Verdún
1159,1820,Ciudad de México,Álvaro Obregón,Ciudad de México,Lomas Axomiatla
1160,1820,Ciudad de México,Álvaro Obregón,Ciudad de México,Ejido San Mateo
1161,1830,Ciudad de México,Álvaro Obregón,Ciudad de México,Santa Rosa Xochiac
1162,1840,Ciudad de México,Álvaro Obregón,Ciudad de México,Torres de Potrero
1163,1849,Ciudad de México,Álvaro Obregón,Ciudad de México,Rincón de la Bolsa
1164,1849,Ciudad de México,Álvaro Obregón,Ciudad de México,Rancho del Carmen del Pueblo San Bartolo Ameyalco
1165,4020,Ciudad de México,Coyoacán,Ciudad de México,La Concepción
1166,4030,Ciudad de México,Coyoacán,Ciudad de México,San Lucas
1167,4040,Ciudad de México,Coyoacán,Ciudad de México,Parque San Andrés
1168,4100,Ciudad de México,Coyoacán,Ciudad de México,Del Carmen
1169,4120,Ciudad de México,Coyoacán,Ciudad de México,San Diego Churubusco
1170,4120,Ciudad de México,Coyoacán,Ciudad de México,San Mateo
1171,4200,Ciudad de México,Coyoacán,Ciudad de México,Campestre Churubusco
1172,4210,Ciudad de México,Coyoacán,Ciudad de México,Churubusco Country Club
1173,4230,Ciudad de México,Coyoacán,Ciudad de México,Prado Churubusco
1174,4240,Ciudad de México,Coyoacán,Ciudad de México,Hermosillo
1175,4250,Ciudad de México,Coyoacán,Ciudad de México,Paseos de Taxqueña
1176,4260,Ciudad de México,Coyoacán,Ciudad de México,San Francisco Culhuacán Barrio de San Francisco
1177,4260,Ciudad de México,Coyoacán,Ciudad de México,San Francisco Culhuacán Barrio de La Magdalena
1178,4260,Ciudad de México,Coyoacán,Ciudad de México,San Francisco Culhuacán Barrio de Santa Ana
1179,4260,Ciudad de México,Coyoacán,Ciudad de México,San Francisco Culhuacán Barrio de San Juan
1180,4300,Ciudad de México,Coyoacán,Ciudad de México,Ajusco
1181,4310,Ciudad de México,Coyoacán,Ciudad de México,Romero de Terreros
1182,4318,Ciudad de México,Coyoacán,Ciudad de México,Oxtopulco Universidad
1183,4320,Ciudad de México,Coyoacán,Ciudad de México,Cuadrante de San Francisco
1184,4320,Ciudad de México,Coyoacán,Ciudad de México,Pedregal de San Francisco
1185,4330,Ciudad de México,Coyoacán,Ciudad de México,El Rosedal
1186,4330,Ciudad de México,Coyoacán,Ciudad de México,Los Reyes
1187,4330,Ciudad de México,Coyoacán,Ciudad de México,Del Niño Jesús
1188,4340,Ciudad de México,Coyoacán,Ciudad de México,Copilco El Bajo
1189,4360,Ciudad de México,Coyoacán,Ciudad de México,Copilco El Alto
1190,4360,Ciudad de México,Coyoacán,Ciudad de México,Copilco Universidad
1191,4369,Ciudad de México,Coyoacán,Ciudad de México,Pedregal de Santo Domingo
1192,4370,Ciudad de México,Coyoacán,Ciudad de México,Atlántida
1193,4370,Ciudad de México,Coyoacán,Ciudad de México,Ciudad Jardín
1194,4380,Ciudad de México,Coyoacán,Ciudad de México,El Rosario
1195,4380,Ciudad de México,Coyoacán,Ciudad de México,La Candelaria
1196,4390,Ciudad de México,Coyoacán,Ciudad de México,Huayamilpas
1197,4390,Ciudad de México,Coyoacán,Ciudad de México,Nueva Díaz Ordaz
1198,4400,Ciudad de México,Coyoacán,Ciudad de México,Educación
1199,4410,Ciudad de México,Coyoacán,Ciudad de México,Petrolera Taxqueña
1200,4420,Ciudad de México,Coyoacán,Ciudad de México,Ex-Ejido de San Francisco Culhuacán
1201,4440,Ciudad de México,Coyoacán,Ciudad de México,Culhuacán CTM Sección V
1202,4440,Ciudad de México,Coyoacán,Ciudad de México,Culhuacán CTM Sección II
1203,4440,Ciudad de México,Coyoacán,Ciudad de México,Culhuacán CTM Sección I
1204,4450,Ciudad de México,Coyoacán,Ciudad de México,El Centinela
1205,4460,Ciudad de México,Coyoacán,Ciudad de México,Avante
1206,4470,Ciudad de México,Coyoacán,Ciudad de México,Presidentes Ejidales 1a Sección
1207,4470,Ciudad de México,Coyoacán,Ciudad de México,Presidentes Ejidales 2a Sección
1208,4480,Ciudad de México,Coyoacán,Ciudad de México,Culhuacán CTM Sección VI
1209,4480,Ciudad de México,Coyoacán,Ciudad de México,Culhuacán CTM Sección III
1210,4480,Ciudad de México,Coyoacán,Ciudad de México,Culhuacán CTM CROC
1211,4480,Ciudad de México,Coyoacán,Ciudad de México,Culhuacán CTM Sección X-A
1212,4489,Ciudad de México,Coyoacán,Ciudad de México,Culhuacán CTM Sección VII
1213,4490,Ciudad de México,Coyoacán,Ciudad de México,Culhuacán CTM Sección Piloto
1214,4490,Ciudad de México,Coyoacán,Ciudad de México,Culhuacán CTM Canal Nacional
1215,4500,Ciudad de México,Coyoacán,Ciudad de México,Jardines del Pedregal de San Ángel
1216,4510,Ciudad de México,Coyoacán,Ciudad de México,Universidad Nacional Autónoma de México
1217,4519,Ciudad de México,Coyoacán,Ciudad de México,La Otra Banda
1218,4530,Ciudad de México,Coyoacán,Ciudad de México,Insurgentes Cuicuilco
1219,4600,Ciudad de México,Coyoacán,Ciudad de México,Pedregal de Santa Úrsula
1220,4610,Ciudad de México,Coyoacán,Ciudad de México,Xotepingo
1221,7180,Ciudad de México,Gustavo A. Madero,Ciudad de México,Cocoyotes
1222,7180,Ciudad de México,Gustavo A. Madero,Ciudad de México,General Felipe Berriozabal
1223,7180,Ciudad de México,Gustavo A. Madero,Ciudad de México,Ampliación Cocoyotes
1224,7183,Ciudad de México,Gustavo A. Madero,Ciudad de México,6 de Junio
1225,7187,Ciudad de México,Gustavo A. Madero,Ciudad de México,Vista Hermosa
1226,7188,Ciudad de México,Gustavo A. Madero,Ciudad de México,Tlalpexco
1227,7189,Ciudad de México,Gustavo A. Madero,Ciudad de México,Ahuehuetes
1228,7190,Ciudad de México,Gustavo A. Madero,Ciudad de México,Valle de Madero
1229,7199,Ciudad de México,Gustavo A. Madero,Ciudad de México,Del Carmen
1230,7200,Ciudad de México,Gustavo A. Madero,Ciudad de México,Cuautepec de Madero
1231,7207,Ciudad de México,Gustavo A. Madero,Ciudad de México,Del Bosque
1232,7209,Ciudad de México,Gustavo A. Madero,Ciudad de México,Guadalupe Victoria Cuautepec
1233,7210,Ciudad de México,Gustavo A. Madero,Ciudad de México,Chalma de Guadalupe
1234,7214,Ciudad de México,Gustavo A. Madero,Ciudad de México,Ampliación Chalma de Guadalupe
1235,7220,Ciudad de México,Gustavo A. Madero,Ciudad de México,Castillo Chico
1236,7220,Ciudad de México,Gustavo A. Madero,Ciudad de México,Castillo Grande
1237,7224,Ciudad de México,Gustavo A. Madero,Ciudad de México,Ampliación Castillo Grande
1238,7230,Ciudad de México,Gustavo A. Madero,Ciudad de México,Zona Escolar
1239,7239,Ciudad de México,Gustavo A. Madero,Ciudad de México,Zona Escolar Oriente
1240,7240,Ciudad de México,Gustavo A. Madero,Ciudad de México,El Arbolillo
1241,7250,Ciudad de México,Gustavo A. Madero,Ciudad de México,Benito Juárez
1242,7259,Ciudad de México,Gustavo A. Madero,Ciudad de México,Ampliación Benito Juárez
1243,7268,Ciudad de México,Gustavo A. Madero,Ciudad de México,Solidaridad Nacional
1244,7270,Ciudad de México,Gustavo A. Madero,Ciudad de México,Residencial Acueducto de Guadalupe
1245,7279,Ciudad de México,Gustavo A. Madero,Ciudad de México,Acueducto de Guadalupe
1246,7280,Ciudad de México,Gustavo A. Madero,Ciudad de México,Jorge Negrete
1247,7290,Ciudad de México,Gustavo A. Madero,Ciudad de México,La Pastora
1248,7300,Ciudad de México,Gustavo A. Madero,Ciudad de México,Lindavista Norte
1249,7300,Ciudad de México,Gustavo A. Madero,Ciudad de México,Lindavista Sur
1250,7310,Ciudad de México,Gustavo A. Madero,Ciudad de México,Candelaria Ticomán
1251,7320,Ciudad de México,Gustavo A. Madero,Ciudad de México,La Purísima Ticomán
1252,7320,Ciudad de México,Gustavo A. Madero,Ciudad de México,Residencial la Escalera
1253,7330,Ciudad de México,Gustavo A. Madero,Ciudad de México,Santa María Ticomán
1254,7340,Ciudad de México,Gustavo A. Madero,Ciudad de México,La Laguna Ticomán
1255,7340,Ciudad de México,Gustavo A. Madero,Ciudad de México,San José Ticomán
1256,7350,Ciudad de México,Gustavo A. Madero,Ciudad de México,Guadalupe Ticomán
1257,7350,Ciudad de México,Gustavo A. Madero,Ciudad de México,San Juan y Guadalupe Ticomán
1258,7359,Ciudad de México,Gustavo A. Madero,Ciudad de México,San Rafael Ticomán
1259,7360,Ciudad de México,Gustavo A. Madero,Ciudad de México,San Pedro Zacatenco
1260,7363,Ciudad de México,Gustavo A. Madero,Ciudad de México,Lomas de San Juan Ixhuatepec 2a Sección
1261,7369,Ciudad de México,Gustavo A. Madero,Ciudad de México,Residencial Zacatenco
1262,7370,Ciudad de México,Gustavo A. Madero,Ciudad de México,Capultitlan
1263,7380,Ciudad de México,Gustavo A. Madero,Ciudad de México,Maximino Ávila Camacho
1264,7380,Ciudad de México,Gustavo A. Madero,Ciudad de México,Tlacamaca
1265,7400,Ciudad de México,Gustavo A. Madero,Ciudad de México,Salvador Díaz Mirón
1266,7410,Ciudad de México,Gustavo A. Madero,Ciudad de México,Juan González Romero
1267,7410,Ciudad de México,Gustavo A. Madero,Ciudad de México,Villa Hermosa
1268,7420,Ciudad de México,Gustavo A. Madero,Ciudad de México,El Coyol
1269,7420,Ciudad de México,Gustavo A. Madero,Ciudad de México,Nueva Atzacoalco
1270,7430,Ciudad de México,Gustavo A. Madero,Ciudad de México,Del Obrero
1271,7440,Ciudad de México,Gustavo A. Madero,Ciudad de México,Vasco de Quiroga
1272,7450,Ciudad de México,Gustavo A. Madero,Ciudad de México,DM Nacional
1273,7455,Ciudad de México,Gustavo A. Madero,Ciudad de México,Ferrocarrilera
1274,7456,Ciudad de México,Gustavo A. Madero,Ciudad de México,LI Legislatura
1275,7460,Ciudad de México,Gustavo A. Madero,Ciudad de México,Granjas Modernas
1276,7469,Ciudad de México,Gustavo A. Madero,Ciudad de México,Constitución de La República
1277,9350,Ciudad de México,Iztapalapa,Ciudad de México,Albarrada
1278,9359,Ciudad de México,Iztapalapa,Ciudad de México,Eva Sámano de López Mateos
1279,9360,Ciudad de México,Iztapalapa,Ciudad de México,San Miguel
1280,9360,Ciudad de México,Iztapalapa,Ciudad de México,Ampliación San Miguel
1281,9400,Ciudad de México,Iztapalapa,Ciudad de México,San Juanico Nextipac
1282,9400,Ciudad de México,Iztapalapa,Ciudad de México,El Sifón
1283,9410,Ciudad de México,Iztapalapa,Ciudad de México,Aculco
1284,9410,Ciudad de México,Iztapalapa,Ciudad de México,Jardines de Churubusco
1285,9410,Ciudad de México,Iztapalapa,Ciudad de México,Magdalena Atlazolpa
1286,9410,Ciudad de México,Iztapalapa,Ciudad de México,San José Aculco
1287,9420,Ciudad de México,Iztapalapa,Ciudad de México,Los Picos VI-B
1288,9420,Ciudad de México,Iztapalapa,Ciudad de México,Nueva Rosita
1289,9429,Ciudad de México,Iztapalapa,Ciudad de México,Purísima Atlazolpa
1290,9430,Ciudad de México,Iztapalapa,Ciudad de México,Apatlaco
1291,9430,Ciudad de México,Iztapalapa,Ciudad de México,El Triunfo
1292,9438,Ciudad de México,Iztapalapa,Ciudad de México,Ampliación El Triunfo
1293,9440,Ciudad de México,Iztapalapa,Ciudad de México,El Retoño
1294,9440,Ciudad de México,Iztapalapa,Ciudad de México,San Andrés Tetepilco
1295,9440,Ciudad de México,Iztapalapa,Ciudad de México,Zacahuitzco
1296,9450,Ciudad de México,Iztapalapa,Ciudad de México,Banjidal
1297,9460,Ciudad de México,Iztapalapa,Ciudad de México,Justo Sierra
1298,9470,Ciudad de México,Iztapalapa,Ciudad de México,Sinatel
1299,9479,Ciudad de México,Iztapalapa,Ciudad de México,Ampliación Sinatel
1300,9480,Ciudad de México,Iztapalapa,Ciudad de México,El Prado
1301,9500,Ciudad de México,Iztapalapa,Ciudad de México,Santa María Aztahuacán
1302,9500,Ciudad de México,Iztapalapa,Ciudad de México,Santa María Aztahuacán Ampliación
1303,9510,Ciudad de México,Iztapalapa,Ciudad de México,Santa Martha Acatitla
1304,9520,Ciudad de México,Iztapalapa,Ciudad de México,El Edén
1305,9520,Ciudad de México,Iztapalapa,Ciudad de México,San Sebastián Tecoloxtitla
1306,9530,Ciudad de México,Iztapalapa,Ciudad de México,Santa Martha Acatitla Sur
1307,9550,Ciudad de México,Iztapalapa,Ciudad de México,Monte Alban
1308,9560,Ciudad de México,Iztapalapa,Ciudad de México,Paraje Zacatepec
1309,9570,Ciudad de México,Iztapalapa,Ciudad de México,Santa María Aztahuacán
1310,9578,Ciudad de México,Iztapalapa,Ciudad de México,Ejército de Agua Prieta
1311,9600,Ciudad de México,Iztapalapa,Ciudad de México,Santiago Acahualtepec
1312,9608,Ciudad de México,Iztapalapa,Ciudad de México,Santiago Acahualtepec 1ra. Ampliación
1313,9609,Ciudad de México,Iztapalapa,Ciudad de México,Santiago Acahualtepec 2a. Ampliación
1314,9620,Ciudad de México,Iztapalapa,Ciudad de México,Lomas de Zaragoza
1315,9630,Ciudad de México,Iztapalapa,Ciudad de México,San Miguel Teotongo Sección Corrales
1316,9630,Ciudad de México,Iztapalapa,Ciudad de México,San Miguel Teotongo Sección Acorralado
1317,9630,Ciudad de México,Iztapalapa,Ciudad de México,San Miguel Teotongo Sección Avisadero
1318,9630,Ciudad de México,Iztapalapa,Ciudad de México,San Miguel Teotongo Sección Capilla
1319,9630,Ciudad de México,Iztapalapa,Ciudad de México,San Miguel Teotongo Sección Guadalupe
1320,9630,Ciudad de México,Iztapalapa,Ciudad de México,San Miguel Teotongo Sección Iztlahuaca
1321,9630,Ciudad de México,Iztapalapa,Ciudad de México,San Miguel Teotongo Sección Jardines
1322,9630,Ciudad de México,Iztapalapa,Ciudad de México,San Miguel Teotongo Sección La Cruz
1323,9630,Ciudad de México,Iztapalapa,Ciudad de México,San Miguel Teotongo Sección Loma Alta
1324,9630,Ciudad de México,Iztapalapa,Ciudad de México,San Miguel Teotongo Sección Mercedes
1325,9630,Ciudad de México,Iztapalapa,Ciudad de México,San Miguel Teotongo Sección Palmitas
1326,9630,Ciudad de México,Iztapalapa,Ciudad de México,San Miguel Teotongo Sección Puente
1327,9630,Ciudad de México,Iztapalapa,Ciudad de México,San Miguel Teotongo Sección Ranchito
1328,9630,Ciudad de México,Iztapalapa,Ciudad de México,San Miguel Teotongo Sección Rancho Bajo
1329,9630,Ciudad de México,Iztapalapa,Ciudad de México,San Miguel Teotongo Sección Torres
1330,9637,Ciudad de México,Iztapalapa,Ciudad de México,Campestre Potrero
1331,11240,Ciudad de México,Miguel Hidalgo,Ciudad de México,Ignacio Manuel Altamirano
1332,11250,Ciudad de México,Miguel Hidalgo,Ciudad de México,10 de Abril
1333,11260,Ciudad de México,Miguel Hidalgo,Ciudad de México,México Nuevo
1334,11260,Ciudad de México,Miguel Hidalgo,Ciudad de México,San Joaquín
1335,11270,Ciudad de México,Miguel Hidalgo,Ciudad de México,Argentina Antigua
1336,11280,Ciudad de México,Miguel Hidalgo,Ciudad de México,Torre Blanca
1337,11289,Ciudad de México,Miguel Hidalgo,Ciudad de México,Ampliación Torre Blanca
1338,11290,Ciudad de México,Miguel Hidalgo,Ciudad de México,Huíchapan
1339,11290,Ciudad de México,Miguel Hidalgo,Ciudad de México,San Diego Ocoyoacac
1340,11300,Ciudad de México,Miguel Hidalgo,Ciudad de México,Verónica Anzures
1341,11310,Ciudad de México,Miguel Hidalgo,Ciudad de México,Mariano Escobedo
1342,11320,Ciudad de México,Miguel Hidalgo,Ciudad de México,Anáhuac I Sección
1343,11320,Ciudad de México,Miguel Hidalgo,Ciudad de México,Anáhuac II Sección
1344,11330,Ciudad de México,Miguel Hidalgo,Ciudad de México,Un Hogar Para Nosotros
1345,11340,Ciudad de México,Miguel Hidalgo,Ciudad de México,Santo Tomas
1346,11350,Ciudad de México,Miguel Hidalgo,Ciudad de México,Plutarco Elías Calles
1347,11360,Ciudad de México,Miguel Hidalgo,Ciudad de México,Agricultura
1348,11370,Ciudad de México,Miguel Hidalgo,Ciudad de México,Tlaxpana
1349,11400,Ciudad de México,Miguel Hidalgo,Ciudad de México,Popotla
1350,11410,Ciudad de México,Miguel Hidalgo,Ciudad de México,Legaria
1351,11410,Ciudad de México,Miguel Hidalgo,Ciudad de México,Tacuba
1352,11420,Ciudad de México,Miguel Hidalgo,Ciudad de México,Nextitla
1353,11430,Ciudad de México,Miguel Hidalgo,Ciudad de México,Pensil Norte
1354,11430,Ciudad de México,Miguel Hidalgo,Ciudad de México,Ventura Pérez de Alva
1355,11440,Ciudad de México,Miguel Hidalgo,Ciudad de México,Reforma Pensil
1356,11440,Ciudad de México,Miguel Hidalgo,Ciudad de México,San Juanico
1357,11450,Ciudad de México,Miguel Hidalgo,Ciudad de México,Ahuehuetes Anáhuac
1358,11450,Ciudad de México,Miguel Hidalgo,Ciudad de México,Modelo Pensil
1359,11450,Ciudad de México,Miguel Hidalgo,Ciudad de México,Peralitos
1360,11460,Ciudad de México,Miguel Hidalgo,Ciudad de México,Dos Lagos
1361,11460,Ciudad de México,Miguel Hidalgo,Ciudad de México,Lago Norte
1362,11460,Ciudad de México,Miguel Hidalgo,Ciudad de México,Lago Sur
1363,11460,Ciudad de México,Miguel Hidalgo,Ciudad de México,Los Manzanos
1364,11470,Ciudad de México,Miguel Hidalgo,Ciudad de México,5 de Mayo
1365,11470,Ciudad de México,Miguel Hidalgo,Ciudad de México,Deportivo Pensil
1366,11480,Ciudad de México,Miguel Hidalgo,Ciudad de México,Francisco I Madero
1367,11480,Ciudad de México,Miguel Hidalgo,Ciudad de México,Popo
1368,11489,Ciudad de México,Miguel Hidalgo,Ciudad de México,Ampliación Popo
1369,11490,Ciudad de México,Miguel Hidalgo,Ciudad de México,Cuauhtémoc Pensil
1370,11490,Ciudad de México,Miguel Hidalgo,Ciudad de México,Pensil Sur
1371,11500,Ciudad de México,Miguel Hidalgo,Ciudad de México,Irrigación
1372,11510,Ciudad de México,Miguel Hidalgo,Ciudad de México,Polanco I Sección
1373,11520,Ciudad de México,Miguel Hidalgo,Ciudad de México,Granada
1374,11529,Ciudad de México,Miguel Hidalgo,Ciudad de México,Ampliación Granada
1375,11530,Ciudad de México,Miguel Hidalgo,Ciudad de México,Polanco II Sección
1376,11540,Ciudad de México,Miguel Hidalgo,Ciudad de México,Polanco III Sección
1377,11550,Ciudad de México,Miguel Hidalgo,Ciudad de México,Polanco IV Sección
1378,11560,Ciudad de México,Miguel Hidalgo,Ciudad de México,Polanco V Sección
1379,11580,Ciudad de México,Miguel Hidalgo,Ciudad de México,Bosque de Chapultepec I Sección
1380,1220,Ciudad de México,Álvaro Obregón,Ciudad de México,La Estrella
1381,1230,Ciudad de México,Álvaro Obregón,Ciudad de México,Campo de Tiro los Gamitos
1382,1230,Ciudad de México,Álvaro Obregón,Ciudad de México,Los Gamitos
1383,1230,Ciudad de México,Álvaro Obregón,Ciudad de México,Tlapechico
1384,1230,Ciudad de México,Álvaro Obregón,Ciudad de México,El Piru Santa Fe
1385,1230,Ciudad de México,Álvaro Obregón,Ciudad de México,El Piru 2a Ampliación
1386,1239,Ciudad de México,Álvaro Obregón,Ciudad de México,La Huerta
1387,1240,Ciudad de México,Álvaro Obregón,Ciudad de México,Pueblo Nuevo
1388,1250,Ciudad de México,Álvaro Obregón,Ciudad de México,El Árbol
1389,1250,Ciudad de México,Álvaro Obregón,Ciudad de México,Ladera
1390,1250,Ciudad de México,Álvaro Obregón,Ciudad de México,Lomas de Nuevo México
1391,1250,Ciudad de México,Álvaro Obregón,Ciudad de México,Margarita Maza de Juárez
1392,1250,Ciudad de México,Álvaro Obregón,Ciudad de México,Tecolalco
1393,1259,Ciudad de México,Álvaro Obregón,Ciudad de México,Ampliación La Cebada
1394,1259,Ciudad de México,Álvaro Obregón,Ciudad de México,La Mexicana 2a Ampliación
1395,1260,Ciudad de México,Álvaro Obregón,Ciudad de México,Calzada Jalalpa
1396,1260,Ciudad de México,Álvaro Obregón,Ciudad de México,La Mexicana
1397,1260,Ciudad de México,Álvaro Obregón,Ciudad de México,Ampliación La Mexicana
1398,1260,Ciudad de México,Álvaro Obregón,Ciudad de México,La Palmita
1399,1260,Ciudad de México,Álvaro Obregón,Ciudad de México,Liberación Proletaria
1400,1269,Ciudad de México,Álvaro Obregón,Ciudad de México,1a Sección Cañada
1401,1269,Ciudad de México,Álvaro Obregón,Ciudad de México,2a Sección Cañada
1402,1270,Ciudad de México,Álvaro Obregón,Ciudad de México,El Tejocote
1403,1270,Ciudad de México,Álvaro Obregón,Ciudad de México,La Presa
1404,1270,Ciudad de México,Álvaro Obregón,Ciudad de México,Golondrinas
1405,1270,Ciudad de México,Álvaro Obregón,Ciudad de México,Golondrinas 1a Sección
1406,1270,Ciudad de México,Álvaro Obregón,Ciudad de México,Golondrinas 2a Sección
1407,1270,Ciudad de México,Álvaro Obregón,Ciudad de México,Lomas de Capula
1408,1275,Ciudad de México,Álvaro Obregón,Ciudad de México,Villa Solidaridad
1409,1276,Ciudad de México,Álvaro Obregón,Ciudad de México,El Pirul
1410,1278,Ciudad de México,Álvaro Obregón,Ciudad de México,Desarrollo Urbano
1411,1279,Ciudad de México,Álvaro Obregón,Ciudad de México,Lomas de Becerra
1412,1280,Ciudad de México,Álvaro Obregón,Ciudad de México,Arvide
1413,1280,Ciudad de México,Álvaro Obregón,Ciudad de México,El Pocito
1414,1280,Ciudad de México,Álvaro Obregón,Ciudad de México,Francisco Villa
1415,1280,Ciudad de México,Álvaro Obregón,Ciudad de México,La Joya
1416,1285,Ciudad de México,Álvaro Obregón,Ciudad de México,El Rodeo
1417,1289,Ciudad de México,Álvaro Obregón,Ciudad de México,Reacomodo El Cuernito
1418,1290,Ciudad de México,Álvaro Obregón,Ciudad de México,Piloto Adolfo López Mateos
1419,1290,Ciudad de México,Álvaro Obregón,Ciudad de México,Presidentes
1420,1296,Ciudad de México,Álvaro Obregón,Ciudad de México,Jalalpa Tepito 2a Ampliación
1421,1296,Ciudad de México,Álvaro Obregón,Ciudad de México,Ampliación Jalalpa
1422,1296,Ciudad de México,Álvaro Obregón,Ciudad de México,Jalalpa Tepito
1423,1298,Ciudad de México,Álvaro Obregón,Ciudad de México,Ampliación Piloto Adolfo López Mateos
1424,1299,Ciudad de México,Álvaro Obregón,Ciudad de México,1a Ampliación Presidentes
1425,1299,Ciudad de México,Álvaro Obregón,Ciudad de México,2a Ampliación Presidentes
1426,1310,Ciudad de México,Álvaro Obregón,Ciudad de México,San Gabriel
1427,1320,Ciudad de México,Álvaro Obregón,Ciudad de México,Carlos A. Madrazo
1428,1330,Ciudad de México,Álvaro Obregón,Ciudad de México,Paseo de las Lomas
1429,1340,Ciudad de México,Álvaro Obregón,Ciudad de México,Bejero del Pueblo Santa Fe
1430,1376,Ciudad de México,Álvaro Obregón,Ciudad de México,Santa Fe
1431,1376,Ciudad de México,Álvaro Obregón,Ciudad de México,Santa Fe Peña Blanca
1432,1376,Ciudad de México,Álvaro Obregón,Ciudad de México,Santa Fe La Loma
1433,1376,Ciudad de México,Álvaro Obregón,Ciudad de México,Santa Fe Centro Ciudad
1434,1377,Ciudad de México,Álvaro Obregón,Ciudad de México,Jalalpa El Grande
1435,2480,Ciudad de México,Azcapotzalco,Ciudad de México,Petrolera
1436,2490,Ciudad de México,Azcapotzalco,Ciudad de México,San Mateo
1437,2500,Ciudad de México,Azcapotzalco,Ciudad de México,Unidad Cuitlahuac
1438,2519,Ciudad de México,Azcapotzalco,Ciudad de México,El Jagüey
1439,2520,Ciudad de México,Azcapotzalco,Ciudad de México,Estación Pantaco
1440,2530,Ciudad de México,Azcapotzalco,Ciudad de México,Jardín Azpeitia
1441,2600,Ciudad de México,Azcapotzalco,Ciudad de México,Pro-Hogar
1442,2630,Ciudad de México,Azcapotzalco,Ciudad de México,Coltongo
1443,2630,Ciudad de México,Azcapotzalco,Ciudad de México,Coltongo
1444,2640,Ciudad de México,Azcapotzalco,Ciudad de México,Monte Alto
1445,2650,Ciudad de México,Azcapotzalco,Ciudad de México,Trabajadores de Hierro
1446,2660,Ciudad de México,Azcapotzalco,Ciudad de México,Euzkadi
1447,2670,Ciudad de México,Azcapotzalco,Ciudad de México,Cosmopolita
1448,2680,Ciudad de México,Azcapotzalco,Ciudad de México,Potrero del Llano
1449,2700,Ciudad de México,Azcapotzalco,Ciudad de México,San Miguel Amantla
1450,2710,Ciudad de México,Azcapotzalco,Ciudad de México,San Pedro Xalpa
1451,2719,Ciudad de México,Azcapotzalco,Ciudad de México,Ampliación San Pedro Xalpa
1452,2720,Ciudad de México,Azcapotzalco,Ciudad de México,San Antonio
1453,2720,Ciudad de México,Azcapotzalco,Ciudad de México,San Bartolo Cahualtongo
1454,2730,Ciudad de México,Azcapotzalco,Ciudad de México,San Francisco Tetecala
1455,2750,Ciudad de México,Azcapotzalco,Ciudad de México,Santiago Ahuizotla
1456,2760,Ciudad de México,Azcapotzalco,Ciudad de México,Industrial San Antonio
1457,2760,Ciudad de México,Azcapotzalco,Ciudad de México,Santa Lucía
1458,2770,Ciudad de México,Azcapotzalco,Ciudad de México,Santa Cruz Acayucan
1459,2780,Ciudad de México,Azcapotzalco,Ciudad de México,Plenitud
1460,2790,Ciudad de México,Azcapotzalco,Ciudad de México,Santa Apolonia
1461,2800,Ciudad de México,Azcapotzalco,Ciudad de México,Nueva Santa María
1462,2810,Ciudad de México,Azcapotzalco,Ciudad de México,Ignacio Allende
1463,2810,Ciudad de México,Azcapotzalco,Ciudad de México,Victoria de las Democracias
1464,2830,Ciudad de México,Azcapotzalco,Ciudad de México,San Bernabé
1465,2840,Ciudad de México,Azcapotzalco,Ciudad de México,Obrero Popular
1466,2860,Ciudad de México,Azcapotzalco,Ciudad de México,Tlatilco
1467,2870,Ciudad de México,Azcapotzalco,Ciudad de México,San Salvador Xochimanca
1468,2900,Ciudad de México,Azcapotzalco,Ciudad de México,Aguilera
1469,2910,Ciudad de México,Azcapotzalco,Ciudad de México,Aldana
1470,2920,Ciudad de México,Azcapotzalco,Ciudad de México,Ampliación Cosmopolita
1471,2930,Ciudad de México,Azcapotzalco,Ciudad de México,Liberación
1472,2940,Ciudad de México,Azcapotzalco,Ciudad de México,Porvenir
1473,2950,Ciudad de México,Azcapotzalco,Ciudad de México,Del Gas
1474,2960,Ciudad de México,Azcapotzalco,Ciudad de México,San Francisco Xocotitla
1475,2970,Ciudad de México,Azcapotzalco,Ciudad de México,Ampliación Del Gas
1476,2980,Ciudad de México,Azcapotzalco,Ciudad de México,Arenal
1477,2980,Ciudad de México,Azcapotzalco,Ciudad de México,Patrimonio Familiar
1478,2990,Ciudad de México,Azcapotzalco,Ciudad de México,La Raza
1479,3000,Ciudad de México,Benito Juárez,Ciudad de México,Piedad Narvarte
1480,3010,Ciudad de México,Benito Juárez,Ciudad de México,Atenor Salas
1481,3020,Ciudad de México,Benito Juárez,Ciudad de México,Narvarte Poniente
1482,3023,Ciudad de México,Benito Juárez,Ciudad de México,Narvarte Oriente
1483,3100,Ciudad de México,Benito Juárez,Ciudad de México,Del Valle Centro
1484,5240,Ciudad de México,Cuajimalpa de Morelos,Ciudad de México,El Molino
1485,5260,Ciudad de México,Cuajimalpa de Morelos,Ciudad de México,Jesús del Monte
1486,5269,Ciudad de México,Cuajimalpa de Morelos,Ciudad de México,Amado Nervo
1487,5270,Ciudad de México,Cuajimalpa de Morelos,Ciudad de México,Manzanastitla
1488,5280,Ciudad de México,Cuajimalpa de Morelos,Ciudad de México,Adolfo López Mateos
1489,5310,Ciudad de México,Cuajimalpa de Morelos,Ciudad de México,El Molinito
1490,5320,Ciudad de México,Cuajimalpa de Morelos,Ciudad de México,El Yaqui
1491,5330,Ciudad de México,Cuajimalpa de Morelos,Ciudad de México,Lomas de Memetla
1492,5330,Ciudad de México,Cuajimalpa de Morelos,Ciudad de México,Memetla
1493,5330,Ciudad de México,Cuajimalpa de Morelos,Ciudad de México,Ampliación Memetla
1494,5330,Ciudad de México,Cuajimalpa de Morelos,Ciudad de México,Ampliación el Yaqui
1495,5348,Ciudad de México,Cuajimalpa de Morelos,Ciudad de México,Santa Fe Cuajimalpa
1496,5360,Ciudad de México,Cuajimalpa de Morelos,Ciudad de México,Locaxco
1497,5370,Ciudad de México,Cuajimalpa de Morelos,Ciudad de México,Las Tinajas
1498,5379,Ciudad de México,Cuajimalpa de Morelos,Ciudad de México,Lomas de San Pedro
1499,5400,Ciudad de México,Cuajimalpa de Morelos,Ciudad de México,El Tianguillo
1500,5410,Ciudad de México,Cuajimalpa de Morelos,Ciudad de México,San Lorenzo Acopilco
1501,5410,Ciudad de México,Cuajimalpa de Morelos,Ciudad de México,1° de Mayo
1502,5500,Ciudad de México,Cuajimalpa de Morelos,Ciudad de México,Contadero
1503,5520,Ciudad de México,Cuajimalpa de Morelos,Ciudad de México,La Venta
1504,5530,Ciudad de México,Cuajimalpa de Morelos,Ciudad de México,Abdías García Soto
1505,5600,Ciudad de México,Cuajimalpa de Morelos,Ciudad de México,San Mateo Tlaltenango
1506,5610,Ciudad de México,Cuajimalpa de Morelos,Ciudad de México,Santa Rosa Xochiac
1507,5700,Ciudad de México,Cuajimalpa de Morelos,Ciudad de México,Cruz Blanca
1508,5710,Ciudad de México,Cuajimalpa de Morelos,Ciudad de México,Las Maromas
1509,5730,Ciudad de México,Cuajimalpa de Morelos,Ciudad de México,Xalpa
1510,5750,Ciudad de México,Cuajimalpa de Morelos,Ciudad de México,La Pila
1511,5760,Ciudad de México,Cuajimalpa de Morelos,Ciudad de México,Las Lajas
1512,5780,Ciudad de México,Cuajimalpa de Morelos,Ciudad de México,Agua Bendita
1513,6000,Ciudad de México,Cuauhtémoc,Ciudad de México,Centro (Área 1)
1514,6010,Ciudad de México,Cuauhtémoc,Ciudad de México,Centro (Área 2)
1515,6020,Ciudad de México,Cuauhtémoc,Ciudad de México,Centro (Área 3)
1516,6030,Ciudad de México,Cuauhtémoc,Ciudad de México,Tabacalera
1517,6040,Ciudad de México,Cuauhtémoc,Ciudad de México,Centro (Área 4)
1518,6050,Ciudad de México,Cuauhtémoc,Ciudad de México,Centro (Área 5)
1519,6060,Ciudad de México,Cuauhtémoc,Ciudad de México,Centro (Área 6)
1520,6070,Ciudad de México,Cuauhtémoc,Ciudad de México,Centro (Área 7)
1521,6080,Ciudad de México,Cuauhtémoc,Ciudad de México,Centro (Área 8)
1522,6090,Ciudad de México,Cuauhtémoc,Ciudad de México,Centro (Área 9)
1523,6100,Ciudad de México,Cuauhtémoc,Ciudad de México,Hipódromo
1524,6140,Ciudad de México,Cuauhtémoc,Ciudad de México,Condesa
1525,6170,Ciudad de México,Cuauhtémoc,Ciudad de México,Hipódromo Condesa
1526,6200,Ciudad de México,Cuauhtémoc,Ciudad de México,Morelos
1527,6220,Ciudad de México,Cuauhtémoc,Ciudad de México,Peralvillo
1528,6240,Ciudad de México,Cuauhtémoc,Ciudad de México,Valle Gómez
1529,6250,Ciudad de México,Cuauhtémoc,Ciudad de México,Ex-Hipódromo de Peralvillo
1530,6270,Ciudad de México,Cuauhtémoc,Ciudad de México,Maza
1531,6280,Ciudad de México,Cuauhtémoc,Ciudad de México,Felipe Pescador
1532,6300,Ciudad de México,Cuauhtémoc,Ciudad de México,Guerrero
1533,6350,Ciudad de México,Cuauhtémoc,Ciudad de México,Buenavista
1534,6400,Ciudad de México,Cuauhtémoc,Ciudad de México,Santa María la Ribera
1535,6430,Ciudad de México,Cuauhtémoc,Ciudad de México,Santa María Insurgentes
1536,6450,Ciudad de México,Cuauhtémoc,Ciudad de México,Atlampa
1537,6470,Ciudad de México,Cuauhtémoc,Ciudad de México,San Rafael
1538,6500,Ciudad de México,Cuauhtémoc,Ciudad de México,Cuauhtémoc
